{"type": "FeatureCollection", "features": [{"type": "Feature", "id": 1, "geometry": {"type": "Polygon", "coordinates": [[[17.18756, 48.05373], [17.18197, 48.04965], [17.17993, 48.04858], [17.17882, 48.04722], [17.17852, 48.04593], [17.17778, 48.04469], [17.17426, 48.04195], [17.17733, 48.04119], [17.17808, 48.04009], [17.17667, 48.03965], [17.17334, 48.0402], [17.17078, 48.0392], [17.16778, 48.03693], [17.16486, 48.03363], [17.15793, 48.02998], [17.15484, 48.02721], [17.14807, 48.02283], [17.14856, 48.02225], [17.14378, 48.02021], [17.14413, 48.01974], [17.14837, 48.01495], [17.15005, 48.01357], [17.16073, 48.00668], [17.16285, 48.00831], [17.17196, 48.01184], [17.17555, 48.01296], [17.17917, 48.01367], [17.19099, 48.01767], [17.19437, 48.01842], [17.1983, 48.0177], [17.199, 48.01834], [17.19935, 48.01948], [17.20001, 48.01982], [17.20284, 48.01999], [17.20708, 48.0191], [17.2141, 48.01911], [17.2207, 48.01649], [17.22658, 48.01625], [17.23264, 48.018], [17.23604, 48.01858], [17.24041, 48.02058], [17.24026, 48.0216], [17.24173, 48.02248], [17.23726, 48.02611], [17.23192, 48.0296], [17.22488, 48.03809], [17.22277, 48.03977], [17.2164, 48.0424], [17.21016, 48.04415], [17.20514, 48.04593], [17.19844, 48.04898], [17.19253, 48.0522], [17.18756, 48.05373]]]}, "properties": {"OBJECTID": 1, "ZUJ": "529435", "NAZOV_ZUJ": "Bratislava - Čunovo", "MC": "CU", "OKRES": 105, "NAZ_OKRESU": "Bratislava V", "MC_LABEL": "Čunovo", "VYMERA": 1863, "Shape_Length": 20104.0329150788}}, {"type": "Feature", "id": 2, "geometry": {"type": "Polygon", "coordinates": [[[16.98302, 48.1931], [16.98211, 48.19254], [16.98137, 48.1883], [16.98027, 48.1874], [16.9765, 48.18712], [16.97651, 48.18571], [16.97741, 48.18198], [16.97546, 48.17662], [16.97547, 48.17494], [16.9762, 48.17179], [16.98431, 48.16814], [16.99457, 48.16096], [16.99884, 48.15888], [17.01253, 48.15337], [17.01448, 48.15208], [17.0184, 48.14852], [17.01977, 48.14925], [17.01837, 48.15099], [17.01372, 48.1542], [17.01481, 48.15444], [17.0153, 48.15532], [17.01599, 48.15567], [17.01701, 48.15556], [17.02409, 48.15142], [17.02725, 48.15022], [17.02933, 48.14979], [17.03063, 48.15004], [17.03309, 48.15113], [17.03527, 48.15066], [17.03652, 48.153], [17.03805, 48.15285], [17.03846, 48.15372], [17.03926, 48.1539], [17.03953, 48.1544], [17.04064, 48.1544], [17.04065, 48.15573], [17.0419, 48.15564], [17.04267, 48.15792], [17.04153, 48.15897], [17.04205, 48.15926], [17.04281, 48.15843], [17.04428, 48.1582], [17.04428, 48.15879], [17.04352, 48.15901], [17.04349, 48.15937], [17.04373, 48.15972], [17.04432, 48.1598], [17.04417, 48.16011], [17.0451, 48.16064], [17.04534, 48.16117], [17.04329, 48.1623], [17.04145, 48.16261], [17.0416, 48.16293], [17.04213, 48.16288], [17.04039, 48.16384], [17.04068, 48.16408], [17.04046, 48.16419], [17.04069, 48.16524], [17.04111, 48.165], [17.04131, 48.16525], [17.04287, 48.16441], [17.04314, 48.16461], [17.04272, 48.16536], [17.0429, 48.16602], [17.04452, 48.16684], [17.04132, 48.16811], [17.04195, 48.16908], [17.04339, 48.16876], [17.04613, 48.16748], [17.04622, 48.168], [17.04436, 48.16966], [17.03975, 48.17185], [17.04054, 48.17246], [17.04274, 48.17246], [17.04258, 48.17334], [17.04198, 48.174], [17.04069, 48.17458], [17.03897, 48.17485], [17.03639, 48.17443], [17.03511, 48.17479], [17.03455, 48.17434], [17.03376, 48.17428], [17.03272, 48.17452], [17.03274, 48.17527], [17.02972, 48.17572], [17.03014, 48.1749], [17.02996, 48.17401], [17.03073, 48.17327], [17.02975, 48.17304], [17.02836, 48.17369], [17.02826, 48.17524], [17.02565, 48.17715], [17.02515, 48.17651], [17.02356, 48.17578], [17.02203, 48.17375], [17.02069, 48.17294], [17.02048, 48.17413], [17.01963, 48.17528], [17.01862, 48.176], [17.0177, 48.17761], [17.01628, 48.17907], [17.01518, 48.1797], [17.01434, 48.17972], [17.01146, 48.18247], [17.01058, 48.18381], [17.01227, 48.18458], [17.01454, 48.18449], [17.01341, 48.18565], [17.01097, 48.18582], [17.00904, 48.18557], [17.00777, 48.18596], [17.00601, 48.18706], [17.00394, 48.18763], [17.00135, 48.18896], [17.00007, 48.19141], [16.9983, 48.19289], [16.99618, 48.19136], [16.99669, 48.19049], [16.99483, 48.18908], [16.99344, 48.18856], [16.99121, 48.19006], [16.99045, 48.19113], [16.9896, 48.19162], [16.98649, 48.19242], [16.98535, 48.19235], [16.98302, 48.1931]]]}, "properties": {"OBJECTID": 2, "ZUJ": "529401", "NAZOV_ZUJ": "Bratislava - Devín", "MC": "DE", "OKRES": 104, "NAZ_OKRESU": "Bratislava IV", "MC_LABEL": "Devín", "VYMERA": 1401, "Shape_Length": 23086.48233804603}}, {"type": "Feature", "id": 3, "geometry": {"type": "Polygon", "coordinates": [[[16.95767, 48.2635], [16.95723, 48.2635], [16.95722, 48.26281], [16.95565, 48.26075], [16.95208, 48.2577], [16.9514, 48.25667], [16.94975, 48.25226], [16.94973, 48.24878], [16.94849, 48.24601], [16.94823, 48.24392], [16.94669, 48.24168], [16.94609, 48.2359], [16.94674, 48.23437], [16.94838, 48.23243], [16.95669, 48.22724], [16.95937, 48.22459], [16.96091, 48.22247], [16.96212, 48.21955], [16.96191, 48.21539], [16.96243, 48.21359], [16.96519, 48.21025], [16.96702, 48.20529], [16.96976, 48.2017], [16.9718, 48.19578], [16.97605, 48.19035], [16.97655, 48.18861], [16.9765, 48.18712], [16.98027, 48.1874], [16.98137, 48.1883], [16.98189, 48.19024], [16.98175, 48.19135], [16.98207, 48.1917], [16.98211, 48.19254], [16.9828, 48.19311], [16.9896, 48.19162], [16.99045, 48.19113], [16.99121, 48.19006], [16.99344, 48.18856], [16.99483, 48.18908], [16.99669, 48.19049], [16.99618, 48.19136], [16.9983, 48.19289], [17.00007, 48.19141], [17.00135, 48.18896], [17.00394, 48.18763], [17.00601, 48.18706], [17.00777, 48.18596], [17.00904, 48.18557], [17.01097, 48.18582], [17.01341, 48.18565], [17.0134, 48.18599], [17.01191, 48.18734], [17.01131, 48.18885], [17.01258, 48.18963], [17.01303, 48.19055], [17.01318, 48.19285], [17.01282, 48.19361], [17.01297, 48.19414], [17.01238, 48.1981], [17.01186, 48.19879], [17.00899, 48.20049], [17.00757, 48.2002], [17.0071, 48.20045], [17.00669, 48.20135], [17.00554, 48.20225], [17.00513, 48.20214], [17.00656, 48.20395], [17.02036, 48.20326], [17.02076, 48.20263], [17.02367, 48.20286], [17.02389, 48.20318], [17.03244, 48.2029], [17.02429, 48.20723], [17.01605, 48.21226], [17.01581, 48.21425], [17.01358, 48.21663], [17.01386, 48.21675], [17.0124, 48.21783], [17.01583, 48.22042], [17.01349, 48.22044], [17.01002, 48.22149], [17.00886, 48.22076], [17.00683, 48.22045], [17.00767, 48.22187], [17.00882, 48.22504], [17.00748, 48.22986], [17.00475, 48.22982], [17.00103, 48.22822], [16.99192, 48.24033], [16.98989, 48.23965], [16.98674, 48.24382], [16.98069, 48.24123], [16.96859, 48.25444], [16.96527, 48.25755], [16.96268, 48.25889], [16.96282, 48.25916], [16.96209, 48.25922], [16.96221, 48.25961], [16.96176, 48.25967], [16.96183, 48.2599], [16.95972, 48.26038], [16.95958, 48.26312], [16.95767, 48.2635]]]}, "properties": {"OBJECTID": 3, "ZUJ": "529371", "NAZOV_ZUJ": "Bratislava - Devínska Nová Ves", "MC": "DV", "OKRES": 104, "NAZ_OKRESU": "Bratislava IV", "MC_LABEL": "Devínska Nová Ves", "VYMERA": 2422, "Shape_Length": 29142.243639487242}}, {"type": "Feature", "id": 4, "geometry": {"type": "Polygon", "coordinates": [[[17.00758, 48.20397], [17.00656, 48.20395], [17.00513, 48.20214], [17.00554, 48.20225], [17.00669, 48.20135], [17.0071, 48.20045], [17.00757, 48.2002], [17.00899, 48.20049], [17.01186, 48.19879], [17.01238, 48.1981], [17.01297, 48.19414], [17.01282, 48.19361], [17.01318, 48.19285], [17.01303, 48.19055], [17.01258, 48.18963], [17.01143, 48.18907], [17.01133, 48.18869], [17.0123, 48.18681], [17.0134, 48.18599], [17.01354, 48.18542], [17.01454, 48.18449], [17.01227, 48.18458], [17.01058, 48.18381], [17.01146, 48.18247], [17.01434, 48.17972], [17.01518, 48.1797], [17.01628, 48.17907], [17.0177, 48.17761], [17.01862, 48.176], [17.01963, 48.17528], [17.02048, 48.17413], [17.02059, 48.17298], [17.02175, 48.17348], [17.02356, 48.17578], [17.02515, 48.17651], [17.02565, 48.17715], [17.02826, 48.17524], [17.02836, 48.17369], [17.02975, 48.17304], [17.03073, 48.17327], [17.02996, 48.17401], [17.03014, 48.1749], [17.02972, 48.17572], [17.03274, 48.17527], [17.03272, 48.17452], [17.03376, 48.17428], [17.03455, 48.17434], [17.03511, 48.17479], [17.03639, 48.17443], [17.03802, 48.17486], [17.04069, 48.17458], [17.04198, 48.174], [17.04285, 48.1727], [17.04274, 48.17246], [17.04178, 48.17257], [17.04172, 48.1723], [17.04054, 48.17246], [17.03975, 48.17185], [17.04467, 48.1694], [17.04435, 48.1704], [17.05022, 48.17], [17.05116, 48.17117], [17.05292, 48.1707], [17.05271, 48.17246], [17.05292, 48.17317], [17.05356, 48.17344], [17.05317, 48.17408], [17.05322, 48.17469], [17.05379, 48.17472], [17.05408, 48.17547], [17.05554, 48.17511], [17.05575, 48.17465], [17.05819, 48.17392], [17.05907, 48.17324], [17.05972, 48.17346], [17.05932, 48.17407], [17.05995, 48.17508], [17.06118, 48.17475], [17.06178, 48.1752], [17.06401, 48.17551], [17.06263, 48.17692], [17.06235, 48.17686], [17.05956, 48.1788], [17.05566, 48.18016], [17.05475, 48.17995], [17.0537, 48.18025], [17.05306, 48.18123], [17.05048, 48.18254], [17.04739, 48.18463], [17.04738, 48.1852], [17.04514, 48.18844], [17.04187, 48.19925], [17.03909, 48.20111], [17.03474, 48.20261], [17.03307, 48.20285], [17.02389, 48.20318], [17.02367, 48.20286], [17.02076, 48.20263], [17.02036, 48.20326], [17.00758, 48.20397]]]}, "properties": {"OBJECTID": 4, "ZUJ": "529389", "NAZOV_ZUJ": "Bratislava - Dúbravka", "MC": "DU", "OKRES": 104, "NAZ_OKRESU": "Bratislava IV", "MC_LABEL": "Dúbravka", "VYMERA": 865, "Shape_Length": 17057.519369089365}}, {"type": "Feature", "id": 5, "geometry": {"type": "Polygon", "coordinates": [[[17.09042, 48.09144], [17.0896, 48.09225], [17.0764, 48.08622], [17.07453, 48.08594], [17.0731, 48.0834], [17.07482, 48.08266], [17.07159, 48.08108], [17.07888, 48.07826], [17.0722, 48.07047], [17.08675, 48.06538], [17.07546, 48.05909], [17.07167, 48.05626], [17.07013, 48.05702], [17.06821, 48.05542], [17.07397, 48.05288], [17.08441, 48.05031], [17.08566, 48.0493], [17.08775, 48.0457], [17.08115, 48.04074], [17.07421, 48.03636], [17.07504, 48.0358], [17.06738, 48.03145], [17.0756, 48.02756], [17.08881, 48.03724], [17.09162, 48.03783], [17.10016, 48.04362], [17.10774, 48.04968], [17.11981, 48.0574], [17.12402, 48.0606], [17.12584, 48.06263], [17.12923, 48.06501], [17.13239, 48.0683], [17.13667, 48.07161], [17.13861, 48.07269], [17.14154, 48.0737], [17.15662, 48.07209], [17.15768, 48.07246], [17.15572, 48.07447], [17.15455, 48.07621], [17.15319, 48.07893], [17.15196, 48.08315], [17.14784, 48.09005], [17.14559, 48.09329], [17.14367, 48.09531], [17.13357, 48.09043], [17.12683, 48.08646], [17.12515, 48.08613], [17.12504, 48.08496], [17.11851, 48.08103], [17.10715, 48.0852], [17.10739, 48.08531], [17.09958, 48.08836], [17.10021, 48.08866], [17.09311, 48.09144], [17.09129, 48.09059], [17.09042, 48.09144]]]}, "properties": {"OBJECTID": 5, "ZUJ": "529443", "NAZOV_ZUJ": "Bratislava - Jarovce", "MC": "JA", "OKRES": 105, "NAZ_OKRESU": "Bratislava V", "MC_LABEL": "Jarovce", "VYMERA": 2132, "Shape_Length": 28232.192296687765}}, {"type": "Feature", "id": 6, "geometry": {"type": "Polygon", "coordinates": [[[17.06464, 48.17844], [17.06418, 48.17843], [17.0633, 48.17727], [17.06263, 48.17692], [17.06401, 48.17551], [17.06178, 48.1752], [17.06118, 48.17475], [17.05995, 48.17508], [17.05935, 48.1742], [17.05972, 48.17346], [17.05935, 48.17325], [17.05847, 48.17348], [17.05819, 48.17392], [17.05575, 48.17465], [17.05554, 48.17511], [17.05408, 48.17547], [17.05379, 48.17472], [17.05322, 48.17469], [17.05317, 48.17408], [17.05356, 48.17344], [17.05292, 48.17317], [17.05271, 48.17246], [17.05292, 48.1707], [17.05116, 48.17117], [17.05022, 48.17], [17.04435, 48.1704], [17.04467, 48.1694], [17.04622, 48.168], [17.04613, 48.16748], [17.04219, 48.16914], [17.04163, 48.16884], [17.04132, 48.16811], [17.04452, 48.16684], [17.0429, 48.16602], [17.04272, 48.16536], [17.04314, 48.16461], [17.04287, 48.16441], [17.04131, 48.16525], [17.04111, 48.165], [17.04069, 48.16524], [17.04046, 48.16419], [17.04068, 48.16408], [17.04039, 48.16384], [17.04213, 48.16288], [17.0416, 48.16293], [17.04145, 48.16261], [17.04329, 48.1623], [17.04534, 48.16117], [17.0451, 48.16064], [17.04417, 48.16011], [17.04432, 48.1598], [17.04373, 48.15972], [17.04349, 48.15937], [17.04352, 48.15901], [17.04428, 48.15879], [17.04428, 48.1582], [17.04281, 48.15843], [17.04205, 48.15926], [17.04153, 48.15897], [17.04267, 48.15792], [17.0419, 48.15564], [17.04065, 48.15573], [17.04064, 48.1544], [17.03953, 48.1544], [17.03926, 48.1539], [17.03846, 48.15372], [17.03805, 48.15285], [17.03652, 48.153], [17.03527, 48.15066], [17.03309, 48.15113], [17.03012, 48.14988], [17.02771, 48.15008], [17.02409, 48.15142], [17.01657, 48.15574], [17.01545, 48.15545], [17.01481, 48.15444], [17.01372, 48.1542], [17.01837, 48.15099], [17.01977, 48.14925], [17.0184, 48.14852], [17.02222, 48.14408], [17.02577, 48.14186], [17.0301, 48.14039], [17.03488, 48.13979], [17.03911, 48.14001], [17.05716, 48.14378], [17.05732, 48.14181], [17.06293, 48.14229], [17.0693, 48.14152], [17.06964, 48.14117], [17.07349, 48.14062], [17.07422, 48.14421], [17.0759, 48.14605], [17.0761, 48.14678], [17.07649, 48.14679], [17.07662, 48.15091], [17.07719, 48.15316], [17.07652, 48.15667], [17.07638, 48.16464], [17.07668, 48.16554], [17.07786, 48.16685], [17.07764, 48.16693], [17.07786, 48.16733], [17.07617, 48.16877], [17.0721, 48.17103], [17.0739, 48.1722], [17.07385, 48.17415], [17.07302, 48.17497], [17.07141, 48.17559], [17.07145, 48.17613], [17.07021, 48.17673], [17.06941, 48.1764], [17.06464, 48.17844]]]}, "properties": {"OBJECTID": 6, "ZUJ": "529397", "NAZOV_ZUJ": "Bratislava - Karlova Ves", "MC": "KV", "OKRES": 104, "NAZ_OKRESU": "Bratislava IV", "MC_LABEL": "Karlova Ves", "VYMERA": 1095, "Shape_Length": 20316.26941687009}}, {"type": "Feature", "id": 7, "geometry": {"type": "Polygon", "coordinates": [[[17.01739, 48.22001], [17.01583, 48.22042], [17.0124, 48.21783], [17.01386, 48.21675], [17.01358, 48.21663], [17.01581, 48.21425], [17.01605, 48.21226], [17.03033, 48.20393], [17.03244, 48.2029], [17.03474, 48.20261], [17.03769, 48.2017], [17.04162, 48.19962], [17.04292, 48.19637], [17.04524, 48.18818], [17.04766, 48.18443], [17.05306, 48.18123], [17.0537, 48.18025], [17.05475, 48.17995], [17.05566, 48.18016], [17.0586, 48.17922], [17.06091, 48.17801], [17.06235, 48.17686], [17.0633, 48.17727], [17.06548, 48.17973], [17.06658, 48.18043], [17.06744, 48.18185], [17.06952, 48.18237], [17.06974, 48.18285], [17.06878, 48.18399], [17.07042, 48.18456], [17.06914, 48.18671], [17.06747, 48.18815], [17.06792, 48.18936], [17.06679, 48.18973], [17.06604, 48.19064], [17.0668, 48.1915], [17.06413, 48.19141], [17.06393, 48.19768], [17.06594, 48.19932], [17.06578, 48.20139], [17.06665, 48.20253], [17.06461, 48.20499], [17.0647, 48.20888], [17.06578, 48.21074], [17.06569, 48.2118], [17.06767, 48.21434], [17.06346, 48.21503], [17.06213, 48.2144], [17.06171, 48.21372], [17.06025, 48.21438], [17.05918, 48.21449], [17.05821, 48.21432], [17.05656, 48.21339], [17.05629, 48.21225], [17.05871, 48.20926], [17.05857, 48.20658], [17.0581, 48.20583], [17.05845, 48.20436], [17.05728, 48.20334], [17.05708, 48.20255], [17.05767, 48.20166], [17.05695, 48.19994], [17.05571, 48.19978], [17.05488, 48.19878], [17.0535, 48.19816], [17.05207, 48.198], [17.0499, 48.19931], [17.0487, 48.20097], [17.04744, 48.20178], [17.04311, 48.20258], [17.04215, 48.20302], [17.04122, 48.20471], [17.03996, 48.20584], [17.03877, 48.20776], [17.03767, 48.20777], [17.03183, 48.21186], [17.02407, 48.21957], [17.0215, 48.22005], [17.0186, 48.21974], [17.01739, 48.22001]]]}, "properties": {"OBJECTID": 7, "ZUJ": "529419", "NAZOV_ZUJ": "Bratislava - Lamač", "MC": "LA", "OKRES": 104, "NAZ_OKRESU": "Bratislava IV", "MC_LABEL": "Lamač", "VYMERA": 654, "Shape_Length": 18860.958313561718}}, {"type": "Feature", "id": 8, "geometry": {"type": "Polygon", "coordinates": [[[17.11035, 48.22791], [17.10996, 48.22801], [17.11019, 48.22776], [17.10997, 48.22759], [17.1097, 48.22776], [17.10899, 48.22692], [17.10862, 48.22705], [17.10732, 48.22616], [17.10761, 48.22578], [17.10722, 48.22569], [17.10739, 48.22542], [17.10706, 48.22522], [17.10734, 48.22507], [17.10676, 48.22485], [17.10616, 48.22325], [17.10482, 48.22303], [17.10411, 48.22253], [17.10289, 48.22285], [17.10279, 48.22314], [17.10068, 48.2232], [17.10077, 48.22358], [17.10027, 48.22376], [17.1001, 48.22341], [17.09867, 48.22409], [17.09747, 48.22411], [17.09619, 48.2233], [17.09556, 48.22222], [17.09456, 48.22201], [17.09365, 48.22134], [17.09192, 48.22155], [17.09175, 48.22208], [17.0897, 48.2221], [17.08949, 48.22104], [17.08896, 48.22058], [17.08932, 48.22023], [17.08918, 48.2195], [17.08962, 48.21866], [17.09063, 48.21796], [17.08881, 48.21787], [17.08644, 48.22029], [17.08424, 48.2213], [17.08051, 48.22195], [17.07781, 48.22316], [17.07554, 48.2233], [17.07249, 48.22216], [17.06988, 48.22055], [17.07047, 48.21888], [17.06964, 48.21724], [17.06855, 48.21605], [17.06809, 48.21472], [17.06687, 48.21361], [17.06569, 48.2118], [17.06578, 48.21074], [17.0647, 48.20888], [17.06447, 48.20628], [17.06461, 48.20499], [17.06665, 48.20253], [17.06578, 48.20139], [17.06594, 48.19932], [17.06393, 48.19768], [17.06413, 48.19141], [17.0668, 48.1915], [17.06604, 48.19064], [17.06679, 48.18973], [17.06792, 48.18936], [17.06747, 48.18815], [17.06914, 48.18671], [17.07042, 48.18456], [17.06878, 48.18399], [17.06974, 48.18285], [17.06952, 48.18237], [17.06744, 48.18185], [17.06668, 48.18054], [17.06438, 48.17856], [17.06941, 48.1764], [17.07021, 48.17673], [17.07145, 48.17613], [17.07141, 48.17559], [17.07302, 48.17497], [17.07619, 48.17301], [17.07799, 48.17143], [17.08141, 48.16736], [17.08333, 48.16598], [17.08628, 48.16474], [17.09161, 48.16391], [17.09233, 48.16334], [17.09469, 48.16342], [17.0999, 48.16265], [17.10247, 48.1618], [17.10486, 48.16024], [17.10708, 48.15956], [17.10813, 48.1589], [17.11118, 48.159], [17.11341, 48.15964], [17.11386, 48.1592], [17.11459, 48.15964], [17.11534, 48.15949], [17.11813, 48.15737], [17.1193, 48.1576], [17.12012, 48.15723], [17.12026, 48.15741], [17.12495, 48.15596], [17.12798, 48.15839], [17.12917, 48.15834], [17.12875, 48.15865], [17.12922, 48.15846], [17.1331, 48.15876], [17.13562, 48.15948], [17.14806, 48.16483], [17.15146, 48.1659], [17.15532, 48.16756], [17.16707, 48.17764], [17.16909, 48.18006], [17.16896, 48.18022], [17.16934, 48.18026], [17.17517, 48.18693], [17.17458, 48.18706], [17.18036, 48.18896], [17.18917, 48.18956], [17.18873, 48.19252], [17.18271, 48.19214], [17.13687, 48.18684], [17.13526, 48.18675], [17.13448, 48.18746], [17.13468, 48.18753], [17.12806, 48.1894], [17.12776, 48.18961], [17.12962, 48.19206], [17.13319, 48.19471], [17.13416, 48.19615], [17.13417, 48.19748], [17.13472, 48.1988], [17.13371, 48.19906], [17.13171, 48.19896], [17.12768, 48.20029], [17.12727, 48.20072], [17.12753, 48.20112], [17.12628, 48.20224], [17.12353, 48.20354], [17.12092, 48.20531], [17.12068, 48.20614], [17.12135, 48.20721], [17.12244, 48.20635], [17.12652, 48.20851], [17.12528, 48.20969], [17.12456, 48.21184], [17.12153, 48.21392], [17.11966, 48.21643], [17.11765, 48.21734], [17.11835, 48.21826], [17.11959, 48.21872], [17.11797, 48.22088], [17.118, 48.22246], [17.11573, 48.2236], [17.11428, 48.2252], [17.11035, 48.22791]]]}, "properties": {"OBJECTID": 8, "ZUJ": "529346", "NAZOV_ZUJ": "Bratislava - Nové Mesto", "MC": "NM", "OKRES": 103, "NAZ_OKRESU": "Bratislava III", "MC_LABEL": "Nové Mesto", "VYMERA": 3748, "Shape_Length": 34739.04029358929}}, {"type": "Feature", "id": 9, "geometry": {"type": "Polygon", "coordinates": [[[17.06225, 48.14232], [17.05732, 48.14181], [17.05941, 48.14125], [17.05932, 48.14037], [17.06011, 48.13998], [17.0609, 48.13895], [17.06159, 48.13694], [17.0616, 48.13602], [17.06011, 48.13578], [17.06139, 48.13349], [17.06192, 48.13347], [17.06203, 48.13256], [17.06259, 48.13179], [17.06553, 48.12936], [17.06404, 48.12876], [17.06426, 48.12813], [17.06624, 48.12822], [17.06759, 48.12745], [17.06784, 48.12707], [17.0671, 48.12644], [17.06779, 48.12589], [17.06765, 48.12532], [17.0688, 48.12414], [17.06794, 48.12355], [17.06658, 48.1237], [17.06507, 48.12326], [17.06297, 48.12348], [17.06215, 48.12304], [17.0624, 48.12202], [17.06357, 48.12091], [17.06471, 48.12045], [17.06618, 48.11901], [17.06793, 48.11819], [17.06816, 48.1171], [17.06797, 48.11666], [17.06861, 48.11615], [17.07279, 48.11453], [17.07435, 48.11452], [17.07703, 48.11512], [17.07284, 48.11031], [17.07905, 48.10791], [17.07738, 48.10597], [17.0833, 48.10254], [17.08369, 48.10301], [17.09267, 48.09966], [17.08773, 48.09658], [17.09311, 48.09144], [17.10021, 48.08866], [17.09958, 48.08836], [17.10739, 48.08531], [17.10715, 48.0852], [17.11851, 48.08103], [17.12504, 48.08496], [17.12515, 48.08613], [17.12683, 48.08646], [17.13357, 48.09043], [17.14347, 48.0952], [17.13969, 48.1], [17.13806, 48.10659], [17.13808, 48.10907], [17.13865, 48.11115], [17.13991, 48.11304], [17.14307, 48.11597], [17.14537, 48.11884], [17.14622, 48.1216], [17.14632, 48.12523], [17.14597, 48.12703], [17.14473, 48.12964], [17.14264, 48.13228], [17.13942, 48.13448], [17.13433, 48.13624], [17.12466, 48.13776], [17.11732, 48.13827], [17.11733, 48.13588], [17.11687, 48.13592], [17.11705, 48.13827], [17.09756, 48.13842], [17.09432, 48.13875], [17.08074, 48.14129], [17.07796, 48.14151], [17.07386, 48.14243], [17.07349, 48.14062], [17.06964, 48.14117], [17.0693, 48.14152], [17.06225, 48.14232]]]}, "properties": {"OBJECTID": 9, "ZUJ": "529460", "NAZOV_ZUJ": "Bratislava - Petržalka", "MC": "PE", "OKRES": 105, "NAZ_OKRESU": "Bratislava V", "MC_LABEL": "Petržalka", "VYMERA": 2865, "Shape_Length": 25582.566875935314}}, {"type": "Feature", "id": 10, "geometry": {"type": "Polygon", "coordinates": [[[17.20016, 48.14395], [17.19789, 48.14196], [17.19621, 48.14262], [17.1927, 48.14068], [17.18993, 48.13855], [17.1858, 48.13633], [17.18763, 48.13437], [17.18722, 48.13411], [17.18818, 48.13337], [17.18819, 48.13297], [17.18618, 48.1308], [17.18639, 48.13026], [17.18681, 48.13032], [17.18771, 48.12869], [17.18765, 48.12899], [17.19163, 48.12912], [17.19376, 48.12711], [17.19519, 48.10705], [17.17315, 48.10635], [17.17192, 48.10432], [17.17068, 48.10356], [17.16985, 48.1038], [17.16916, 48.10464], [17.16832, 48.1049], [17.16172, 48.1047], [17.15674, 48.10302], [17.15447, 48.10091], [17.14907, 48.10049], [17.14955, 48.09775], [17.14367, 48.09531], [17.14667, 48.09183], [17.15121, 48.08449], [17.15223, 48.08252], [17.15375, 48.0777], [17.15531, 48.075], [17.15703, 48.07306], [17.16217, 48.0686], [17.16585, 48.06623], [17.16956, 48.06177], [17.17395, 48.05842], [17.17708, 48.05694], [17.18733, 48.05381], [17.19439, 48.06391], [17.20204, 48.06168], [17.20076, 48.06539], [17.20166, 48.0671], [17.20069, 48.06834], [17.20125, 48.06872], [17.20204, 48.07008], [17.20079, 48.07056], [17.20282, 48.07379], [17.20429, 48.07545], [17.2073, 48.07601], [17.20901, 48.07667], [17.21074, 48.07806], [17.21184, 48.07951], [17.21211, 48.08075], [17.21132, 48.08267], [17.20948, 48.08435], [17.20668, 48.08575], [17.21301, 48.09278], [17.21371, 48.09221], [17.21506, 48.09273], [17.21485, 48.09346], [17.21596, 48.0946], [17.21678, 48.09444], [17.21771, 48.09567], [17.21804, 48.09771], [17.2163, 48.09965], [17.21749, 48.10101], [17.21677, 48.10168], [17.21663, 48.10233], [17.21727, 48.10351], [17.21816, 48.10383], [17.22035, 48.10378], [17.22609, 48.10666], [17.22986, 48.10808], [17.23602, 48.1116], [17.23914, 48.11146], [17.24058, 48.11228], [17.24277, 48.11201], [17.24427, 48.11145], [17.24548, 48.11227], [17.24879, 48.11026], [17.25398, 48.10914], [17.25512, 48.10819], [17.26214, 48.10677], [17.26357, 48.10602], [17.26487, 48.10448], [17.26656, 48.10347], [17.27611, 48.10014], [17.28315, 48.11021], [17.28326, 48.11278], [17.28449, 48.1167], [17.28181, 48.11663], [17.27929, 48.11696], [17.28273, 48.1208], [17.28007, 48.12343], [17.27469, 48.12269], [17.26925, 48.12359], [17.26496, 48.12385], [17.26254, 48.1294], [17.25974, 48.13448], [17.25864, 48.13573], [17.25675, 48.13643], [17.25345, 48.13692], [17.25353, 48.13771], [17.24183, 48.13894], [17.2403, 48.14249], [17.23812, 48.14419], [17.23601, 48.14387], [17.22261, 48.1386], [17.21838, 48.13618], [17.21763, 48.13608], [17.21655, 48.13826], [17.21577, 48.13846], [17.20672, 48.13466], [17.20358, 48.13789], [17.20282, 48.13911], [17.20264, 48.14061], [17.20214, 48.14062], [17.20181, 48.14115], [17.20273, 48.14307], [17.20201, 48.1437], [17.20016, 48.14395]]]}, "properties": {"OBJECTID": 10, "ZUJ": "529311", "NAZOV_ZUJ": "Bratislava - Podunajské Biskupic", "MC": "PB", "OKRES": 102, "NAZ_OKRESU": "Bratislava II", "MC_LABEL": "Podunajské Biskupice", "VYMERA": 4248, "Shape_Length": 41059.22815640357}}, {"type": "Feature", "id": 11, "geometry": {"type": "Polygon", "coordinates": [[[17.12833, 48.24306], [17.125, 48.2426], [17.12408, 48.24183], [17.12347, 48.24213], [17.12217, 48.24212], [17.12109, 48.24128], [17.11771, 48.24106], [17.11744, 48.24031], [17.11639, 48.24031], [17.11535, 48.23955], [17.11481, 48.23856], [17.11248, 48.23821], [17.11175, 48.23775], [17.1086, 48.23796], [17.10757, 48.23761], [17.10756, 48.23706], [17.10795, 48.23707], [17.10797, 48.23651], [17.10822, 48.23645], [17.10753, 48.23548], [17.10767, 48.23525], [17.1073, 48.23473], [17.10768, 48.23447], [17.10763, 48.23414], [17.10743, 48.23347], [17.10706, 48.23334], [17.10688, 48.23244], [17.10735, 48.23202], [17.10752, 48.23045], [17.10965, 48.22818], [17.11109, 48.22761], [17.11171, 48.22677], [17.11428, 48.2252], [17.11573, 48.2236], [17.118, 48.22246], [17.11797, 48.22088], [17.11959, 48.21872], [17.11835, 48.21826], [17.11765, 48.21734], [17.11966, 48.21643], [17.12153, 48.21392], [17.12456, 48.21184], [17.12528, 48.20969], [17.12652, 48.20851], [17.12244, 48.20635], [17.12135, 48.20721], [17.12068, 48.20614], [17.12092, 48.20531], [17.12353, 48.20354], [17.12628, 48.20224], [17.12753, 48.20112], [17.12727, 48.20072], [17.12768, 48.20029], [17.13171, 48.19896], [17.13371, 48.19906], [17.13472, 48.1988], [17.13417, 48.19748], [17.13416, 48.19615], [17.13319, 48.19471], [17.12962, 48.19206], [17.12776, 48.18961], [17.13468, 48.18753], [17.13448, 48.18746], [17.13526, 48.18675], [17.18706, 48.19246], [17.18684, 48.19595], [17.18439, 48.20133], [17.18428, 48.20511], [17.18301, 48.20972], [17.18105, 48.21213], [17.17871, 48.21584], [17.17803, 48.21753], [17.17875, 48.21764], [17.17841, 48.21866], [17.17779, 48.21857], [17.17563, 48.22068], [17.17086, 48.22298], [17.16838, 48.22495], [17.16761, 48.22659], [17.16633, 48.22812], [17.16399, 48.22927], [17.16374, 48.23068], [17.16247, 48.23251], [17.15812, 48.23476], [17.15406, 48.23856], [17.1533, 48.2384], [17.1477, 48.2392], [17.14668, 48.23991], [17.14543, 48.24009], [17.14491, 48.24073], [17.14471, 48.24254], [17.14417, 48.24326], [17.14309, 48.24377], [17.14162, 48.24343], [17.14055, 48.24266], [17.13894, 48.24208], [17.13419, 48.24285], [17.12891, 48.24277], [17.12833, 48.24283], [17.12833, 48.24306]]]}, "properties": {"OBJECTID": 11, "ZUJ": "529354", "NAZOV_ZUJ": "Bratislava - Rača", "MC": "RA", "OKRES": 103, "NAZ_OKRESU": "Bratislava III", "MC_LABEL": "Rača", "VYMERA": 2366, "Shape_Length": 22980.54989085054}}, {"type": "Feature", "id": 12, "geometry": {"type": "Polygon", "coordinates": [[[17.14179, 48.07367], [17.14003, 48.07328], [17.13667, 48.07161], [17.13239, 48.0683], [17.12923, 48.06501], [17.12584, 48.06263], [17.12402, 48.0606], [17.12063, 48.05799], [17.10774, 48.04968], [17.10016, 48.04362], [17.09162, 48.03783], [17.08881, 48.03724], [17.0756, 48.02756], [17.07788, 48.02647], [17.08031, 48.0259], [17.08479, 48.02386], [17.08813, 48.02178], [17.0895, 48.02055], [17.08983, 48.01981], [17.11002, 48.03125], [17.11499, 48.02963], [17.11734, 48.02828], [17.12026, 48.02599], [17.1218, 48.02433], [17.12669, 48.02095], [17.1308, 48.023], [17.13297, 48.02241], [17.13634, 48.02293], [17.1374, 48.02259], [17.14, 48.02074], [17.14232, 48.01954], [17.14856, 48.02225], [17.14807, 48.02283], [17.15484, 48.02721], [17.15793, 48.02998], [17.16486, 48.03363], [17.16778, 48.03693], [17.17078, 48.0392], [17.17334, 48.0402], [17.17667, 48.03965], [17.17808, 48.04009], [17.17733, 48.04119], [17.17426, 48.04195], [17.17778, 48.04469], [17.17852, 48.04593], [17.17882, 48.04722], [17.17993, 48.04858], [17.18662, 48.05282], [17.18733, 48.05381], [17.17708, 48.05694], [17.17395, 48.05842], [17.16956, 48.06177], [17.16585, 48.06623], [17.16217, 48.0686], [17.15768, 48.07246], [17.15662, 48.07209], [17.14179, 48.07367]]]}, "properties": {"OBJECTID": 12, "ZUJ": "529494", "NAZOV_ZUJ": "Bratislava - Rusovce", "MC": "RS", "OKRES": 105, "NAZ_OKRESU": "Bratislava V", "MC_LABEL": "Rusovce", "VYMERA": 2556, "Shape_Length": 23848.28268175135}}, {"type": "Feature", "id": 13, "geometry": {"type": "Polygon", "coordinates": [[[17.18458, 48.18929], [17.18036, 48.18896], [17.17458, 48.18706], [17.17517, 48.18693], [17.16934, 48.18026], [17.16896, 48.18022], [17.16909, 48.18006], [17.16707, 48.17764], [17.15532, 48.16756], [17.15146, 48.1659], [17.14806, 48.16483], [17.13562, 48.15948], [17.1331, 48.15876], [17.12922, 48.15846], [17.12875, 48.15865], [17.12917, 48.15834], [17.12798, 48.15839], [17.12512, 48.15609], [17.12587, 48.1532], [17.12667, 48.15273], [17.12672, 48.15235], [17.1265, 48.15102], [17.12473, 48.14654], [17.13242, 48.14577], [17.12919, 48.14022], [17.12044, 48.14087], [17.11746, 48.13998], [17.11732, 48.13827], [17.12466, 48.13776], [17.13086, 48.13686], [17.13489, 48.1361], [17.13761, 48.13522], [17.13942, 48.13448], [17.14264, 48.13228], [17.14526, 48.12878], [17.14632, 48.12523], [17.14622, 48.1216], [17.14571, 48.11976], [17.14537, 48.11884], [17.14394, 48.11693], [17.14076, 48.114], [17.13922, 48.11209], [17.13824, 48.11022], [17.13802, 48.1084], [17.13823, 48.1057], [17.13969, 48.1], [17.14347, 48.0952], [17.14955, 48.09775], [17.14907, 48.10049], [17.15447, 48.10091], [17.15674, 48.10302], [17.16172, 48.1047], [17.16832, 48.1049], [17.16916, 48.10464], [17.16985, 48.1038], [17.17068, 48.10356], [17.17192, 48.10432], [17.17315, 48.10635], [17.19519, 48.10705], [17.19376, 48.12711], [17.19163, 48.12912], [17.18765, 48.12899], [17.18771, 48.12869], [17.18681, 48.13032], [17.18639, 48.13026], [17.18618, 48.1308], [17.18819, 48.13297], [17.18818, 48.13337], [17.18722, 48.13411], [17.18763, 48.13437], [17.1858, 48.13633], [17.18993, 48.13855], [17.1927, 48.14068], [17.19003, 48.14389], [17.18732, 48.14495], [17.18485, 48.14772], [17.17998, 48.15036], [17.18039, 48.15183], [17.1813, 48.15254], [17.18511, 48.15381], [17.18668, 48.15372], [17.18705, 48.15324], [17.18877, 48.15481], [17.18908, 48.15568], [17.1889, 48.15631], [17.18729, 48.15776], [17.18614, 48.15824], [17.18668, 48.15938], [17.186, 48.15949], [17.18925, 48.15998], [17.18978, 48.15964], [17.19148, 48.15994], [17.2041, 48.1642], [17.21504, 48.16633], [17.22736, 48.16926], [17.23722, 48.16779], [17.23711, 48.16842], [17.23636, 48.16914], [17.23443, 48.16981], [17.23089, 48.16936], [17.22956, 48.16983], [17.22864, 48.17099], [17.22619, 48.17244], [17.2242, 48.17414], [17.22323, 48.17601], [17.21788, 48.18185], [17.21844, 48.18235], [17.22006, 48.1822], [17.22102, 48.18253], [17.22244, 48.18474], [17.2251, 48.1864], [17.2253, 48.18689], [17.22471, 48.18817], [17.2244, 48.19176], [17.19956, 48.18998], [17.18458, 48.18929]]]}, "properties": {"OBJECTID": 13, "ZUJ": "529320", "NAZOV_ZUJ": "Bratislava - Ružinov", "MC": "RZ", "OKRES": 102, "NAZ_OKRESU": "Bratislava II", "MC_LABEL": "Ružinov", "VYMERA": 3971, "Shape_Length": 39693.56728706303}}, {"type": "Feature", "id": 14, "geometry": {"type": "Polygon", "coordinates": [[[17.07349, 48.17449], [17.07385, 48.17415], [17.07389, 48.17215], [17.0721, 48.17103], [17.07617, 48.16877], [17.07787, 48.16726], [17.07638, 48.16464], [17.07652, 48.15667], [17.07719, 48.15316], [17.07662, 48.15091], [17.07649, 48.14679], [17.0761, 48.14678], [17.0759, 48.14605], [17.07422, 48.14421], [17.07386, 48.14243], [17.09521, 48.13863], [17.10098, 48.13829], [17.11705, 48.13827], [17.11687, 48.13592], [17.11733, 48.13588], [17.11746, 48.13998], [17.12044, 48.14087], [17.12919, 48.14022], [17.13242, 48.14577], [17.12473, 48.14654], [17.1265, 48.15102], [17.12672, 48.15235], [17.12667, 48.15273], [17.12587, 48.1532], [17.12512, 48.15609], [17.12485, 48.15595], [17.1193, 48.1576], [17.11813, 48.15737], [17.11534, 48.15949], [17.11473, 48.15963], [17.11386, 48.1592], [17.11341, 48.15964], [17.11118, 48.159], [17.10813, 48.1589], [17.10708, 48.15956], [17.10486, 48.16024], [17.10247, 48.1618], [17.0999, 48.16265], [17.09469, 48.16342], [17.09233, 48.16334], [17.09161, 48.16391], [17.08797, 48.16429], [17.08544, 48.16502], [17.08176, 48.16705], [17.07745, 48.17199], [17.07349, 48.17449]]]}, "properties": {"OBJECTID": 14, "ZUJ": "528595", "NAZOV_ZUJ": "Bratislava - Staré Mesto", "MC": "SM", "OKRES": 101, "NAZ_OKRESU": "Bratislava I", "MC_LABEL": "Staré Mesto", "VYMERA": 959, "Shape_Length": 16268.933818414722}}, {"type": "Feature", "id": 15, "geometry": {"type": "Polygon", "coordinates": [[[17.1647, 48.24434], [17.16456, 48.24457], [17.16324, 48.24443], [17.16162, 48.24397], [17.15922, 48.24248], [17.15812, 48.24062], [17.15644, 48.23934], [17.15406, 48.23856], [17.15812, 48.23476], [17.16247, 48.23251], [17.16374, 48.23068], [17.16399, 48.22927], [17.16633, 48.22812], [17.16761, 48.22659], [17.16806, 48.22527], [17.16994, 48.22361], [17.17563, 48.22068], [17.17779, 48.21857], [17.17841, 48.21866], [17.17875, 48.21764], [17.17803, 48.21753], [17.17871, 48.21584], [17.18105, 48.21213], [17.18301, 48.20972], [17.18428, 48.20511], [17.18439, 48.20133], [17.18684, 48.19595], [17.18706, 48.19241], [17.18873, 48.19252], [17.18917, 48.18956], [17.18724, 48.18941], [17.19956, 48.18998], [17.2244, 48.19176], [17.22403, 48.19272], [17.22412, 48.19338], [17.22482, 48.19413], [17.22626, 48.19483], [17.22855, 48.19477], [17.22914, 48.19772], [17.23156, 48.1985], [17.22712, 48.20406], [17.22225, 48.20668], [17.2162, 48.21319], [17.20922, 48.21849], [17.19689, 48.22517], [17.19386, 48.2271], [17.19153, 48.22911], [17.18857, 48.23074], [17.18657, 48.23139], [17.18307, 48.23354], [17.18119, 48.23382], [17.17841, 48.23552], [17.17588, 48.23585], [17.17423, 48.23683], [17.17298, 48.23679], [17.17103, 48.23735], [17.16793, 48.23896], [17.16526, 48.24164], [17.16508, 48.2425], [17.16533, 48.24312], [17.1647, 48.24434]]]}, "properties": {"OBJECTID": 15, "ZUJ": "529362", "NAZOV_ZUJ": "Bratislava - Vajnory", "MC": "VA", "OKRES": 103, "NAZ_OKRESU": "Bratislava III", "MC_LABEL": "Vajnory", "VYMERA": 1353, "Shape_Length": 19321.71005860147}}, {"type": "Feature", "id": 16, "geometry": {"type": "Polygon", "coordinates": [[[17.2275, 48.16925], [17.21179, 48.16562], [17.2041, 48.1642], [17.19148, 48.15994], [17.18978, 48.15964], [17.18925, 48.15998], [17.186, 48.15949], [17.18668, 48.15938], [17.18614, 48.15824], [17.18729, 48.15776], [17.1889, 48.15631], [17.18908, 48.15568], [17.18877, 48.15481], [17.18705, 48.15324], [17.18668, 48.15372], [17.18511, 48.15381], [17.1813, 48.15254], [17.18039, 48.15183], [17.17998, 48.15036], [17.18485, 48.14772], [17.18732, 48.14495], [17.19003, 48.14389], [17.19278, 48.14058], [17.19621, 48.14262], [17.19789, 48.14196], [17.20004, 48.14394], [17.20201, 48.1437], [17.20273, 48.14307], [17.20181, 48.14115], [17.20214, 48.14062], [17.20264, 48.14061], [17.20292, 48.1389], [17.20672, 48.13466], [17.21577, 48.13846], [17.21655, 48.13826], [17.21763, 48.13608], [17.21838, 48.13618], [17.22261, 48.1386], [17.23601, 48.14387], [17.23736, 48.14416], [17.23751, 48.14588], [17.23895, 48.14846], [17.23765, 48.14978], [17.23867, 48.15115], [17.23835, 48.1533], [17.23659, 48.15378], [17.23356, 48.15632], [17.23521, 48.15737], [17.23514, 48.15796], [17.23418, 48.1585], [17.23456, 48.15876], [17.23447, 48.16113], [17.23379, 48.16278], [17.23175, 48.16315], [17.2321, 48.16401], [17.23173, 48.16441], [17.23105, 48.16453], [17.22857, 48.16388], [17.22714, 48.16401], [17.22824, 48.16528], [17.22849, 48.1665], [17.22905, 48.16716], [17.23126, 48.16736], [17.23317, 48.16662], [17.23544, 48.16658], [17.23626, 48.16685], [17.23722, 48.16779], [17.2275, 48.16925]]]}, "properties": {"OBJECTID": 16, "ZUJ": "529338", "NAZOV_ZUJ": "Bratislava - Vrakuňa", "MC": "VR", "OKRES": 102, "NAZ_OKRESU": "Bratislava II", "MC_LABEL": "Vrakuňa", "VYMERA": 1030, "Shape_Length": 16430.90977484472}}, {"type": "Feature", "id": 17, "geometry": {"type": "Polygon", "coordinates": [[[16.95858, 48.26507], [16.95781, 48.26338], [16.95958, 48.26312], [16.95972, 48.26038], [16.96183, 48.2599], [16.96176, 48.25967], [16.96221, 48.25961], [16.96209, 48.25922], [16.96282, 48.25916], [16.96268, 48.25889], [16.96527, 48.25755], [16.97044, 48.25255], [16.98069, 48.24123], [16.98674, 48.24382], [16.98989, 48.23965], [16.99192, 48.24033], [17.00103, 48.22822], [17.00475, 48.22982], [17.00748, 48.22986], [17.00882, 48.22504], [17.00767, 48.22187], [17.00683, 48.22045], [17.00886, 48.22076], [17.01002, 48.22149], [17.01349, 48.22044], [17.01583, 48.22042], [17.0184, 48.21976], [17.0213, 48.22006], [17.02392, 48.21966], [17.03183, 48.21186], [17.03767, 48.20777], [17.03877, 48.20776], [17.03996, 48.20584], [17.04122, 48.20471], [17.04215, 48.20302], [17.04311, 48.20258], [17.04744, 48.20178], [17.0487, 48.20097], [17.0499, 48.19931], [17.05207, 48.198], [17.0535, 48.19816], [17.05488, 48.19878], [17.05571, 48.19978], [17.05695, 48.19994], [17.05767, 48.20166], [17.05708, 48.20255], [17.05728, 48.20334], [17.05845, 48.20436], [17.0581, 48.20583], [17.05857, 48.20658], [17.05871, 48.20926], [17.05627, 48.21229], [17.05629, 48.21293], [17.05708, 48.21384], [17.05928, 48.21449], [17.06171, 48.21372], [17.06213, 48.2144], [17.06346, 48.21503], [17.06767, 48.21434], [17.07047, 48.21888], [17.06988, 48.22055], [17.07249, 48.22216], [17.07554, 48.2233], [17.07781, 48.22316], [17.08051, 48.22195], [17.08424, 48.2213], [17.08644, 48.22029], [17.08881, 48.21787], [17.08957, 48.21783], [17.09065, 48.2181], [17.08962, 48.21866], [17.08918, 48.2195], [17.08925, 48.22048], [17.08896, 48.22058], [17.08949, 48.22104], [17.08943, 48.22174], [17.08982, 48.22215], [17.09175, 48.22208], [17.09192, 48.22155], [17.09365, 48.22134], [17.09456, 48.22201], [17.09556, 48.22222], [17.09619, 48.2233], [17.09747, 48.22411], [17.09867, 48.22409], [17.1001, 48.22341], [17.10027, 48.22376], [17.10109, 48.22307], [17.10279, 48.22314], [17.10367, 48.22253], [17.10528, 48.22319], [17.10588, 48.2231], [17.1063, 48.22342], [17.10676, 48.22485], [17.10734, 48.22507], [17.10706, 48.22522], [17.10739, 48.22542], [17.10722, 48.22569], [17.10761, 48.22578], [17.10732, 48.22616], [17.10862, 48.22705], [17.10899, 48.22692], [17.1097, 48.22776], [17.11019, 48.22776], [17.10752, 48.23045], [17.10735, 48.23202], [17.1069, 48.23234], [17.10706, 48.23334], [17.10743, 48.23347], [17.10763, 48.23414], [17.10768, 48.23447], [17.1073, 48.23473], [17.10767, 48.23525], [17.10753, 48.23548], [17.10822, 48.23645], [17.10739, 48.23748], [17.1086, 48.23796], [17.11175, 48.23775], [17.11248, 48.23821], [17.11481, 48.23856], [17.11535, 48.23955], [17.11639, 48.24031], [17.11744, 48.24031], [17.11771, 48.24106], [17.12109, 48.24128], [17.12217, 48.24212], [17.12347, 48.24213], [17.12408, 48.24183], [17.12494, 48.24259], [17.12614, 48.24289], [17.12707, 48.24271], [17.12811, 48.24312], [17.12891, 48.24277], [17.13419, 48.24285], [17.13535, 48.24332], [17.13727, 48.24754], [17.12923, 48.24798], [17.12612, 48.24668], [17.12415, 48.24635], [17.12223, 48.24465], [17.12047, 48.24439], [17.11869, 48.24452], [17.11395, 48.24561], [17.11109, 48.2472], [17.10558, 48.24821], [17.1011, 48.24861], [17.09932, 48.24939], [17.0975, 48.24955], [17.0967, 48.24922], [17.09524, 48.24925], [17.09368, 48.24723], [17.09102, 48.24671], [17.08877, 48.24724], [17.08784, 48.2478], [17.08621, 48.24792], [17.08577, 48.24851], [17.08438, 48.24919], [17.08138, 48.24987], [17.08089, 48.24966], [17.08193, 48.24867], [17.08253, 48.24742], [17.08229, 48.24698], [17.08144, 48.247], [17.08175, 48.24631], [17.08152, 48.24384], [17.08078, 48.24285], [17.07906, 48.24258], [17.07797, 48.24205], [17.07717, 48.24046], [17.07633, 48.24012], [17.07605, 48.23884], [17.07614, 48.23792], [17.07665, 48.23715], [17.07664, 48.23593], [17.07375, 48.23565], [17.07154, 48.23672], [17.0708, 48.23668], [17.06959, 48.23745], [17.06784, 48.23962], [17.0678, 48.2405], [17.06818, 48.24129], [17.06733, 48.24217], [17.06558, 48.24268], [17.05983, 48.24268], [17.05774, 48.24385], [17.05721, 48.24368], [17.05322, 48.24469], [17.04898, 48.24498], [17.04714, 48.24553], [17.04591, 48.24694], [17.04441, 48.25037], [17.04569, 48.25119], [17.04416, 48.25209], [17.04272, 48.2511], [17.0403, 48.25079], [17.03485, 48.25055], [17.03421, 48.25115], [17.02943, 48.2502], [17.02884, 48.251], [17.02507, 48.25059], [17.02391, 48.25014], [17.0226, 48.25037], [17.02074, 48.25014], [17.02015, 48.24908], [17.01853, 48.24873], [17.01834, 48.24807], [17.00382, 48.25092], [17.00126, 48.25082], [16.99785, 48.25125], [16.99817, 48.25202], [16.99594, 48.25263], [16.9939, 48.25264], [16.99395, 48.25236], [16.99166, 48.25206], [16.98952, 48.25203], [16.98935, 48.25253], [16.98719, 48.25227], [16.98653, 48.25344], [16.98565, 48.25312], [16.98508, 48.25338], [16.98345, 48.25518], [16.97093, 48.26317], [16.96967, 48.26366], [16.96787, 48.26351], [16.95858, 48.26507]]]}, "properties": {"OBJECTID": 17, "ZUJ": "529427", "NAZOV_ZUJ": "Bratislava - Záhorská Bystrica", "MC": "ZB", "OKRES": 104, "NAZ_OKRESU": "Bratislava IV", "MC_LABEL": "Záhorská Bystrica", "VYMERA": 3230, "Shape_Length": 44399.8132773109}}]}