{"type":"FeatureCollection","features":[{"type":"Feature","geometry":{"type":"Point","coordinates":[17.128407,48.141043]},"properties":{"n":"East Tower","mc":"Bratislava - Staré Mesto","druh":"","od":"","osm":"way/25686121","web":"","dev":"","blizko":1}},{"type":"Feature","geometry":{"type":"Point","coordinates":[17.131851,48.143799]},"properties":{"n":"Downtown Yards","mc":"Bratislava - Ružinov","druh":"bývanie","od":"","osm":"way/27297936","web":"https://downtown-yards.sk/","dev":"","blizko":0}},{"type":"Feature","geometry":{"type":"Point","coordinates":[17.065521,48.160173]},"properties":{"n":"Internát Ľudovíta Štúra (VB-A)","mc":"Bratislava - Karlova Ves","druh":"internát","od":"","osm":"way/79872718","web":"","dev":"","blizko":0}},{"type":"Feature","geometry":{"type":"Point","coordinates":[17.145162,48.157639]},"properties":{"n":"Areál hier Radosť","mc":"Bratislava - Ružinov","druh":"","od":"","osm":"way/141796880","web":"","dev":"","blizko":0}},{"type":"Feature","geometry":{"type":"Point","coordinates":[17.123106,48.095933]},"properties":{"n":"Fiľakovská","mc":"Bratislava - Petržalka","druh":"bývanie","od":"","osm":"way/166633611","web":"","dev":"","blizko":0}},{"type":"Feature","geometry":{"type":"Point","coordinates":[17.099495,48.120322]},"properties":{"n":"Panónska","mc":"Bratislava - Petržalka","druh":"bývanie","od":"","osm":"way/243816621","web":"https://panonska.sk/","dev":"","blizko":1}},{"type":"Feature","geometry":{"type":"Point","coordinates":[17.116382,48.09076]},"properties":{"n":"Slnečnice - Nad mestom","mc":"Bratislava - Petržalka","druh":"bývanie","od":"","osm":"way/264010602","web":"https://www.slnecnice.sk/mesto/zona-mesto","dev":"","blizko":0}},{"type":"Feature","geometry":{"type":"Point","coordinates":[17.086527,48.142263]},"properties":{"n":"Nové PKO","mc":"Bratislava - Staré Mesto","druh":"","od":"","osm":"way/408658559","web":"","dev":"","blizko":0}},{"type":"Feature","geometry":{"type":"Point","coordinates":[17.132443,48.147652]},"properties":{"n":"Zwirn","mc":"Bratislava - Ružinov","druh":"bývanie","od":"","osm":"way/548846525","web":"","dev":"YIT","blizko":1}},{"type":"Feature","geometry":{"type":"Point","coordinates":[17.148146,48.220923]},"properties":{"n":"Potočné","mc":"Bratislava - Rača","druh":"bývanie","od":"","osm":"way/813648807","web":"https://www.potocne.sk/","dev":"","blizko":0}},{"type":"Feature","geometry":{"type":"Point","coordinates":[17.053552,48.176147]},"properties":{"n":"Čerešne Residence","mc":"Bratislava - Dúbravka","druh":"bývanie","od":"","osm":"way/825977987","web":"https://www.ceresne.sk/","dev":"","blizko":1}},{"type":"Feature","geometry":{"type":"Point","coordinates":[17.125082,48.143115]},"properties":{"n":"Sky Park Tower","mc":"Bratislava - Staré Mesto","druh":"","od":"","osm":"way/902159858","web":"","dev":"","blizko":1}},{"type":"Feature","geometry":{"type":"Point","coordinates":[17.036063,48.223077]},"properties":{"n":"Orešianky","mc":"Bratislava - Záhorská Bystrica","druh":"bývanie","od":"","osm":"way/938043772","web":"https://www.oresianky.sk/","dev":"","blizko":1}},{"type":"Feature","geometry":{"type":"Point","coordinates":[17.066417,48.15999]},"properties":{"n":"Internát Ľudovíta Štúra","mc":"Bratislava - Karlova Ves","druh":"internát","od":"","osm":"way/1021545410","web":"https://mlyny.uniba.sk/o-nas/internat-l-stura/","dev":"Univerzita Komenského v Bratislave","blizko":0}},{"type":"Feature","geometry":{"type":"Point","coordinates":[17.127508,48.159474]},"properties":{"n":"Istropolis","mc":"Bratislava - Nové Mesto","druh":"obchod a služby","od":"","osm":"way/1038324193","web":"https://immocap.sk/projekty/istropolis/","dev":"Immocap","blizko":1}},{"type":"Feature","geometry":{"type":"Point","coordinates":[17.040665,48.232479]},"properties":{"n":"Livana","mc":"Bratislava - Záhorská Bystrica","druh":"bývanie","od":"","osm":"way/1077110721","web":"https://livana.sk","dev":"","blizko":0}},{"type":"Feature","geometry":{"type":"Point","coordinates":[17.218069,48.147744]},"properties":{"n":"Jazmínová alej","mc":"Bratislava - Vrakuňa","druh":"bývanie","od":"","osm":"way/1102724049","web":"https://jazminovaalej.sk/","dev":"","blizko":0}},{"type":"Feature","geometry":{"type":"Point","coordinates":[17.044251,48.202016]},"properties":{"n":"ELEMENT Lamač","mc":"Bratislava - Lamač","druh":"bývanie","od":"","osm":"way/1103397231","web":"https://www.elementlamac.sk/","dev":"","blizko":0}},{"type":"Feature","geometry":{"type":"Point","coordinates":[17.1266,48.168287]},"properties":{"n":"Green Corner","mc":"Bratislava - Nové Mesto","druh":"bývanie","od":"","osm":"way/1113466528","web":"https://www.greencorner.sk/","dev":"","blizko":1}},{"type":"Feature","geometry":{"type":"Point","coordinates":[17.159752,48.142774]},"properties":{"n":"NUPPU","mc":"Bratislava - Ružinov","druh":"bývanie","od":"","osm":"way/1116740680","web":"https://www.yit.sk/bratislava/ruzinov/nuppu","dev":"","blizko":0}},{"type":"Feature","geometry":{"type":"Point","coordinates":[17.157196,48.144389]},"properties":{"n":"NUPPU","mc":"Bratislava - Ružinov","druh":"bývanie","od":"","osm":"way/1116740681","web":"https://www.yit.sk/bratislava/ruzinov/nuppu","dev":"","blizko":0}},{"type":"Feature","geometry":{"type":"Point","coordinates":[17.110185,48.110631]},"properties":{"n":"Kutlíkova","mc":"Bratislava - Petržalka","druh":"secondary","od":"","osm":"way/1162913895","web":"","dev":"","blizko":0}},{"type":"Feature","geometry":{"type":"Point","coordinates":[17.075021,48.170796]},"properties":{"n":"Pri studničke","mc":"Bratislava - Staré Mesto","druh":"","od":"","osm":"way/1163113531","web":"https://pristudnicke.sk/","dev":"","blizko":1}},{"type":"Feature","geometry":{"type":"Point","coordinates":[17.135213,48.143714]},"properties":{"n":"Polyfunkčný areál Votrubova","mc":"Bratislava - Ružinov","druh":"bývanie","od":"","osm":"way/1173171230","web":"","dev":"","blizko":0}},{"type":"Feature","geometry":{"type":"Point","coordinates":[17.01004,48.201224]},"properties":{"n":"Axxence Office","mc":"Bratislava - Dúbravka","druh":"administratíva","od":"","osm":"way/1186267328","web":"","dev":"AXXENCE Slovakia s.r.o.","blizko":0}},{"type":"Feature","geometry":{"type":"Point","coordinates":[17.13895,48.19888]},"properties":{"n":"Verdena","mc":"Bratislava - Rača","druh":"bývanie","od":"","osm":"way/1194668352","web":"","dev":"","blizko":1}},{"type":"Feature","geometry":{"type":"Point","coordinates":[17.110885,48.110605]},"properties":{"n":"Kutlíkova","mc":"Bratislava - Petržalka","druh":"secondary","od":"","osm":"way/1236407612","web":"","dev":"","blizko":0}},{"type":"Feature","geometry":{"type":"Point","coordinates":[17.110989,48.110467]},"properties":{"n":"Kutlíkova","mc":"Bratislava - Petržalka","druh":"secondary","od":"","osm":"way/1236407614","web":"","dev":"","blizko":0}},{"type":"Feature","geometry":{"type":"Point","coordinates":[17.110263,48.110492]},"properties":{"n":"Kutlíkova","mc":"Bratislava - Petržalka","druh":"secondary","od":"","osm":"way/1236407615","web":"","dev":"","blizko":0}},{"type":"Feature","geometry":{"type":"Point","coordinates":[17.14894,48.214962]},"properties":{"n":"Račianska perla","mc":"Bratislava - Rača","druh":"bývanie","od":"","osm":"way/1272585848","web":"https://www.racianskaperla.sk/","dev":"","blizko":0}},{"type":"Feature","geometry":{"type":"Point","coordinates":[17.141458,48.15978]},"properties":{"n":"Baya","mc":"Bratislava - Ružinov","druh":"bývanie","od":"","osm":"way/1304069692","web":"https://baya.btk.sk/","dev":"","blizko":0}},{"type":"Feature","geometry":{"type":"Point","coordinates":[17.162824,48.149566]},"properties":{"n":"PONT","mc":"Bratislava - Ružinov","druh":"bývanie","od":"","osm":"way/1306946177","web":"https://www.pont.sk/","dev":"","blizko":0}},{"type":"Feature","geometry":{"type":"Point","coordinates":[17.116683,48.0911]},"properties":{"n":"M1-A","mc":"Bratislava - Petržalka","druh":"bývanie","od":"","osm":"way/1313117943","web":"","dev":"","blizko":0}},{"type":"Feature","geometry":{"type":"Point","coordinates":[17.117788,48.091053]},"properties":{"n":"M1-B","mc":"Bratislava - Petržalka","druh":"bývanie","od":"","osm":"way/1313117944","web":"","dev":"","blizko":0}},{"type":"Feature","geometry":{"type":"Point","coordinates":[17.109041,48.11068]},"properties":{"n":"Kutlíkova","mc":"Bratislava - Petržalka","druh":"secondary","od":"","osm":"way/1347268998","web":"","dev":"","blizko":0}},{"type":"Feature","geometry":{"type":"Point","coordinates":[17.109084,48.110544]},"properties":{"n":"Kutlíkova","mc":"Bratislava - Petržalka","druh":"secondary","od":"","osm":"way/1347268999","web":"","dev":"","blizko":0}},{"type":"Feature","geometry":{"type":"Point","coordinates":[17.112055,48.160358]},"properties":{"n":"Winehills","mc":"Bratislava - Nové Mesto","druh":"bývanie","od":"","osm":"way/1356046965","web":"https://www.winehills.sk/","dev":"","blizko":0}},{"type":"Feature","geometry":{"type":"Point","coordinates":[17.126536,48.151935]},"properties":{"n":"Karadžička","mc":"Bratislava - Staré Mesto","druh":"bývanie","od":"","osm":"way/1377698377","web":"https://www.karadzicka.sk/","dev":"","blizko":0}},{"type":"Feature","geometry":{"type":"Point","coordinates":[17.123706,48.146835]},"properties":{"n":"Malý Trh","mc":"Bratislava - Staré Mesto","druh":"bývanie","od":"","osm":"way/1422965443","web":"","dev":"","blizko":1}},{"type":"Feature","geometry":{"type":"Point","coordinates":[17.055989,48.176138]},"properties":{"n":"Čerešne UP","mc":"Bratislava - Dúbravka","druh":"bývanie","od":"","osm":"way/1431586921","web":"https://www.ceresne.sk/","dev":"","blizko":0}},{"type":"Feature","geometry":{"type":"Point","coordinates":[16.987606,48.204733]},"properties":{"n":"Stockerka","mc":"Bratislava - Devínska Nová Ves","druh":"bývanie","od":"","osm":"way/1432087419","web":"https://www.stockerka.sk/","dev":"","blizko":0}},{"type":"Feature","geometry":{"type":"Point","coordinates":[17.104845,48.156356]},"properties":{"n":"Pražská9","mc":"Bratislava - Staré Mesto","druh":"bývanie","od":"","osm":"way/1436220567","web":"https://www.prazska9.sk/","dev":"","blizko":1}},{"type":"Feature","geometry":{"type":"Point","coordinates":[17.094704,48.166058]},"properties":{"n":"Bytový dom Stromová","mc":"Bratislava - Nové Mesto","druh":"bývanie","od":"","osm":"way/1456127839","web":"https://stromova.house/","dev":"","blizko":0}},{"type":"Feature","geometry":{"type":"Point","coordinates":[17.109527,48.150616]},"properties":{"n":"Galéria Banskobystrická","mc":"Bratislava - Staré Mesto","druh":"bývanie","od":"","osm":"way/1458475223","web":"","dev":"","blizko":1}},{"type":"Feature","geometry":{"type":"Point","coordinates":[17.03612,48.186802]},"properties":{"n":"Komplex bývania a občianskej vybavenosti Saratovská","mc":"Bratislava - Dúbravka","druh":"","od":"","osm":"way/1461922143","web":"","dev":"","blizko":1}},{"type":"Feature","geometry":{"type":"Point","coordinates":[17.127724,48.159373]},"properties":{"n":"Nový Istropolis - Zóna B","mc":"Bratislava - Nové Mesto","druh":"obchod a služby","od":"","osm":"way/1472519457","web":"","dev":"","blizko":1}},{"type":"Feature","geometry":{"type":"Point","coordinates":[17.134684,48.183519]},"properties":{"n":"Predmestie","mc":"Bratislava - Nové Mesto","druh":"bývanie","od":"","osm":"way/1475201904","web":"","dev":"","blizko":1}}]}