{"type":"FeatureCollection","features":[{"type":"Feature","geometry":{"type":"Point","coordinates":[17.188983,48.159134]},"properties":{"n":"Predlženie Galvaniho ulice, Preložka cesty 11/572 — I. etapa","druh":"územné rozhodnutie","mc":"Vrakuňa","datum":"","stavebnik":"Stronci Services s.r.o.","ico":"53016980","parcely":"3125/8, 3125/79, 3125/85, 3125/86, 3125/87","ku":"","url":"https://www.vrakuna.sk/data/news_files/vrakuna.sk/136608/ur-predlzenie-galvaniho-ulice-prelozka-cesty-ii-572-1-etapa.pdf","detail":"https://www.vrakuna.sk/novinka/136608/uzemne-rozhodnutie-o-umiestneni-liniovej-stavby-predlzenie-galvaniho-ulice-prelozka-cesty-ii572-i-etapa","id":"f5c7e342b2a2527d"}},{"type":"Feature","geometry":{"type":"Point","coordinates":[17.21253,48.142021]},"properties":{"n":"Bytový nájomný dom Žitavská","druh":"stavebné povolenie","mc":"Vrakuňa","datum":"","stavebnik":"","ico":"","parcely":"3605/1","ku":"Vrakuňa","url":"https://www.vrakuna.sk/data/news_files/vrakuna.sk/135620/rozhodnutie-stavebne-povolenie-bytovy-najomny-dom-zitavska.pdf","detail":"https://www.vrakuna.sk/novinka/135620/rozhodnutie-stavebne-povolenie-bytovy-najomny-dom-zitavska","id":"6d161d35ace91424"}},{"type":"Feature","geometry":{"type":"Point","coordinates":[16.986081,48.2218]},"properties":{"n":"STAVEBNÉ POVOLENIE „Technická infraštruktúra pre Obytný súbor – Slnečný vrch I“","druh":"stavebné povolenie","mc":"Devínska Nová Ves","datum":"2026-08-27","stavebnik":"","ico":"","parcely":"2779/27, 2779/68, 2779/69, 2779/70, 2779/71","ku":"Devínska Nová Ves","url":"https://www.devinskanovaves.sk/data/advertisement/devinskanovaves.sk/532049/204205_slnecny-vrch-technicka-infrastruktuta-pre-os-sln-vrch-rozh.pdf","detail":"https://www.devinskanovaves.sk/zverejnovanie/detail/532049/stavebne-povolenie-technicka-infrastruktura-pre-obytny-subor-slnecny-vrch-i","id":"5fe4b408abd3cf3a"}},{"type":"Feature","geometry":{"type":"Point","coordinates":[17.029034,48.205837]},"properties":{"n":"Územné rozhodnutie o umiestnení stavby BORY BÝVANIE 5","druh":"územné rozhodnutie","mc":"Lamač","datum":"2024-03-21","stavebnik":"Bory Home, s.r.o., Digital Park II, Einsteinova 25, 851 01 Bratislava","ico":"48099171","parcely":"641/13, 641/39, 644/312, 644/363, 644/364","ku":"Lamač","url":"https://www.lamac.sk/files/documents/stavebny-urad/uradna-tabula/2024/2023_472_uzemne-rozhodnutie-bory-byvanie-5.pdf","detail":"https://www.lamac.sk/samosprava/zverejnovanie/uradna-tabula-stavebneho-uradu/uzemne-rozhodnutie-o-umiestneni-stavby-bory-byvanie-5","id":"5b7dc7f60e89bb8f"}},{"type":"Feature","geometry":{"type":"Point","coordinates":[17.026572,48.206563]},"properties":{"n":"Stavebné povolenie - Bory Nádvorie","druh":"stavebné povolenie","mc":"Lamač","datum":"2024-01-11","stavebnik":"Bory Home, s.r.o., Digital Park II, Einsteinova 25, 851 01","ico":"48099171","parcely":"641/119, 642/164, 642/165, 642/167, 644/345","ku":"Lamač","url":"https://www.lamac.sk/files/documents/stavebny-urad/uradna-tabula/2024/stavebne-povolenie-bory-nadvorie.pdf","detail":"https://www.lamac.sk/samosprava/zverejnovanie/uradna-tabula-stavebneho-uradu/stavebne-povolenie-bory-nadvorie","id":"9eb8ff25a64ad8c5"}},{"type":"Feature","geometry":{"type":"Point","coordinates":[17.147984,48.208038]},"properties":{"n":"Obytný súbor Rínok-Rača","druh":"kolaudácia","mc":"Rača","datum":"2023-11-20","stavebnik":"2JTI, s.r.o., Vajnorská 100/A, 831 04 Bratislava, zapísaná","ico":"44648928","parcely":"1537/145, 1531/6, 1537/92, 1537/4","ku":"Rača","url":"https://www.raca.sk/wp-content/uploads/2023/11/2JTI-Rinok-Raca-SO-14-Kryte-parkovisko-G4-SO-34.4-Kontajnerove-statie-c.-4-kolaudacne-rozhodnutie-final.pdf","detail":"https://www.raca.sk/wp-content/uploads/2023/11/2JTI-Rinok-Raca-SO-14-Kryte-parkovisko-G4-SO-34.4-Kontajnerove-statie-c.-4-kolaudacne-rozhodnutie-final.pdf","id":"f82f225c8f02fc9e"}},{"type":"Feature","geometry":{"type":"Point","coordinates":[17.113231,48.115368]},"properties":{"n":"č. 4228/2026 – Rozhodnutie povoľuje užívanie zmeny dokončenej stavby – Bytový dom-rekonštrukcia strechy, stavebné úpravy","druh":"kolaudácia","mc":"Petržalka","datum":"2026-09-08","stavebnik":"","ico":"","parcely":"1277","ku":"Petržalka","url":"https://www.petrzalka.sk/wp-content/uploads/2026/09/26-4228-KR-BD-Romanova-1315.pdf","detail":"https://www.petrzalka.sk/2026-09-08-c-4228-2026-rozhodnutie-povoluje-uzivanie-zmeny-dokoncenej-stavby-bytovy-dom-rekonstrukcia-strechy-stavebne-upravy-a-modernizacia-spolocnych-priestorov-romanova-1315-v-k-u-bratislava-petrzalka/","id":"98eb318e23d0c81c"}}]}