{"type":"FeatureCollection","features":[{"type":"Feature","id":1,"geometry":{"type":"Polygon","coordinates":[[[17.04763,48.176572],[17.051489,48.177136],[17.051082,48.17834],[17.046883,48.177664],[17.046713,48.177501],[17.046735,48.177269],[17.04763,48.176572]]]},"properties":{"c":84,"mc":"Dúbravka","vym":32145,"fp":"201","fn":null,"kp":"F","kn":"F, G","vys":"Maximálna výška 46 metrov","bf":"Registrovaný brownfield","u":"naplno využiť potenciál územia vyplývajúci z maximálnej výšky stanovenej UŠ výškového zónovania\nvytvoriť priechodnú, efektívnu, priestorovo zrozumiteľnú a kompaktnú urbánnu štruktúru s ohľadom na polohu v rámci mesta\nrešpektovať existujúcu uličnú čiaru okolitej zástavby\npreferovať formu blokovej zástavby / hmotovo-priestorové riešenie vymedziť takým spôsobom, aby bolo možné jednoznačne určiť plochu bloku a jeho hrany s verejným priestranstvom\nvytvárať hierarchiu a kvalitu verejných a poloverejných priestorov\nvyužiť v území kompozičné akcenty\nvytvoriť pobytové verejné priestory\nvytvoriť polyfun","d":"V ďalšom stupni dokumentácie požadujeme vypracovanie DKP a napojenieriešeného územia na plánovanú cyklistickú infraštruktúru a MHD podľa platného UPN.","upnz":null}},{"type":"Feature","id":2,"geometry":{"type":"Polygon","coordinates":[[[17.14296,48.141873],[17.144705,48.141159],[17.145465,48.141081],[17.146634,48.141144],[17.14829,48.141498],[17.148539,48.14169],[17.14296,48.141873]]]},"properties":{"c":86,"mc":"Ružinov","vym":11208,"fp":"201","fn":501,"kp":"M","kn":"M","vys":"Maximálna výška 46 metrov","bf":"Registrovaný brownfield","u":"Lokalita je bude súčasťou Mestskej urbanistickej štúdie Mlynské Nivy","d":"Lokalita je bude súčasťou Mestskej urbanistickej štúdie Mlynské Nivy","upnz":null}},{"type":"Feature","id":3,"geometry":{"type":"Polygon","coordinates":[[[17.124676,48.14077],[17.125861,48.140683],[17.125877,48.140753],[17.124883,48.14212],[17.124676,48.14077]]]},"properties":{"c":87,"mc":"Staré Mesto","vym":7249,"fp":"201","fn":501,"kp":"K","kn":"K","vys":"Maximálna výška 30 metrov","bf":"nie","u":"naplno využiť potenciál územia vyplývajúci z maximálnej výšky stanovenej UŠ výškového zónovania\ndotvoriť urbánnu štruktúru s formou a intenzitou jestvujúcej zástavby v okolitom území\nrešpektovať existujúcu uličnú čiaru okolitej zástavby\npreferovať formu blokovej zástavby / hmotovo-priestorové riešenie vymedziť takým spôsobom, aby bolo možné jednoznačne určiť plochu bloku a jeho hrany s verejným priestranstvom\nvytvárať hierarchiu a kvalitu verejných a poloverejných priestorov\nrešpektovať priehľady v území\nvyužiť potenciál vyhliadkových bodov v území\nvytvoriť aktívny parter pozdĺž uličnej čiary\n","d":"V ďalšom stupni dokumentácie požadujeme vypracovanie DKP a všetky navrhované parkovacie miesta umiestniť v PG. ","upnz":null}},{"type":"Feature","id":4,"geometry":{"type":"Polygon","coordinates":[[[17.125075,48.142093],[17.126118,48.140662],[17.128998,48.140451],[17.129763,48.141774],[17.125075,48.142093]]]},"properties":{"c":88,"mc":"Staré Mesto","vym":25061,"fp":"201","fn":501,"kp":"M","kn":"M","vys":"Maximálna výška 30 metrov","bf":"Registrovaná envirozáťaž","u":"naplno využiť potenciál územia vyplývajúci z maximálnej výšky stanovenej UŠ výškového zónovania\ndotvoriť urbánnu štruktúru s formou a intenzitou jestvujúcej zástavby v okolitom území\nrešpektovať existujúcu uličnú čiaru okolitej zástavby\npreferovať formu blokovej zástavby / hmotovo-priestorové riešenie vymedziť takým spôsobom, aby bolo možné jednoznačne určiť plochu bloku a jeho hrany s verejným priestranstvom\nvytvárať hierarchiu a kvalitu verejných a poloverejných priestorov\nrešpektovať priehľady v území\nvyužiť potenciál vyhliadkových bodov v území\nvyužiť v území kompozičné akcenty\nvytvoriť ak","d":"Požadujeme vypracovania DKP a  znižiť celkový počet navrhovaných parkovacích miest, pričom všetky umiestniť v PG.","upnz":null}},{"type":"Feature","id":5,"geometry":{"type":"Polygon","coordinates":[[[17.073162,48.171133],[17.074462,48.170727],[17.074691,48.170774],[17.075114,48.17119],[17.075191,48.171348],[17.07426,48.171761],[17.0738,48.171648],[17.073162,48.171133]]]},"properties":{"c":89,"mc":"Staré Mesto","vym":10687,"fp":"201","fn":501,"kp":"I","kn":"J","vys":"Maximálna výška 30 metrov","bf":"nie","u":"vytvoriť priechodnú, efektívnu, priestorovo zrozumiteľnú a kompaktnú urbánnu štruktúru s ohľadom na polohu v rámci mesta\nrešpektovať existujúcu uličnú čiaru okolitej zástavby\npreferovať formu blokovej zástavby / hmotovo-priestorové riešenie vymedziť takým spôsobom, aby bolo možné jednoznačne určiť plochu bloku a jeho hrany s verejným priestranstvom\nvytvárať hierarchiu a kvalitu verejných a poloverejných priestorov\nvyužiť v území kompozičné akcenty\nvytvoriť aktívny parter pozdĺž uličnej čiary\nvytvoriť pobytové verejné priestory\nvytvoriť polyfunkčné územie s pracovnými príležitosťami\nreagovať na","d":"V ďalšom stupni dokumentácie požadujeme vypracovanie DKP v miestach napojenia na existujúcu cestnú infraštruktúru, vrátene posúdenia priľahlej križíovarky s Lamačskou cestou.","upnz":"Rozpracovaný ÚPNZ Brnianska - Patrónka"}},{"type":"Feature","id":6,"geometry":{"type":"Polygon","coordinates":[[[17.119329,48.12885],[17.119576,48.128841],[17.120025,48.128929],[17.121133,48.12889],[17.121194,48.129579],[17.121226,48.129578],[17.121249,48.130267],[17.117844,48.130413],[17.117823,48.129921],[17.119363,48.129853],[17.119329,48.12885]]]},"properties":{"c":90,"mc":"Petržalka","vym":27476,"fp":"201, 501, 201, 501","fn":501,"kp":"G, J, S, Stabil","kn":"J","vys":"Maximálna výška 46 metrov","bf":"nie","u":"naplno využiť potenciál územia vyplývajúci z maximálnej výšky stanovenej UŠ výškového zónovania\ndotvoriť urbánnu štruktúru s formou a intenzitou jestvujúcej zástavby v okolitom území\nrešpektovať existujúcu uličnú čiaru okolitej zástavby\npreferovať formu blokovej zástavby / hmotovo-priestorové riešenie vymedziť takým spôsobom, aby bolo možné jednoznačne určiť plochu bloku a jeho hrany s verejným priestranstvom\nvytvárať hierarchiu a kvalitu verejných a poloverejných priestorov\nrešpektovať priehľady v území\nvytvoriť aktívny parter pozdĺž uličnej čiary\nvytvoriť pobytové verejné priestory\nvytvoriť ","d":"V ďalšom stupni dokumentácie požadujeme vypracovanie DKP.","upnz":"Platný ÚPNZ Celomestské centrum časť Petržalka"}},{"type":"Feature","id":7,"geometry":{"type":"Polygon","coordinates":[[[17.140482,48.146186],[17.140417,48.145863],[17.140436,48.145613],[17.140555,48.145297],[17.140724,48.14509],[17.141142,48.14505],[17.141178,48.145384],[17.142032,48.145266],[17.142234,48.146149],[17.141259,48.146263],[17.141273,48.14643],[17.141197,48.146489],[17.141315,48.14667],[17.140849,48.146702],[17.14077,48.14667],[17.140838,48.14663],[17.140689,48.146161],[17.140482,48.146186]]]},"properties":{"c":92,"mc":"Ružinov","vym":14653,"fp":"201","fn":501,"kp":"Stabil","kn":"M","vys":"Maximálna výška 30 metrov","bf":"nie","u":"Lokalita je bude súčasťou Mestskej urbanistickej štúdie Mlynské Nivy","d":"Lokalita je bude súčasťou Mestskej urbanistickej štúdie Mlynské Nivy","upnz":null}},{"type":"Feature","id":8,"geometry":{"type":"Polygon","coordinates":[[[17.146205,48.145774],[17.14734,48.145753],[17.147335,48.14593],[17.148967,48.146001],[17.148812,48.147527],[17.146067,48.147462],[17.146205,48.145774]]]},"properties":{"c":94,"mc":"Ružinov","vym":38562,"fp":"201, 501","fn":101,"kp":"H","kn":"H","vys":"Maximálna výška 30 metrov","bf":"nie","u":"Lokalita je bude súčasťou Mestskej urbanistickej štúdie Mlynské Nivy","d":"Lokalita je bude súčasťou Mestskej urbanistickej štúdie Mlynské Nivy","upnz":null}},{"type":"Feature","id":9,"geometry":{"type":"Polygon","coordinates":[[[17.136208,48.156024],[17.13607,48.156079],[17.136043,48.156221],[17.135255,48.156179],[17.135385,48.155833],[17.134802,48.155781],[17.134666,48.155696],[17.135303,48.155164],[17.13641,48.155307],[17.136208,48.156024]]]},"properties":{"c":95,"mc":"Ružinov","vym":9193,"fp":"201","fn":501,"kp":"Stabil","kn":"G","vys":"Maximálna výška 30 metrov","bf":"nie","u":"dotvoriť urbánnu štruktúru s formou a intenzitou jestvujúcej zástavby v okolitom území\npreferovať formu blokovej zástavby / hmotovo-priestorové riešenie vymedziť takým spôsobom, aby bolo možné jednoznačne určiť plochu bloku a jeho hrany s verejným priestranstvom\nvytvoriť aktívny parter pozdĺž uličnej čiary\nvytvoriť pobytové verejné priestory\ndo riešeného územia zahrnúť aj jestvujúci objekt bytového domu a preriešiť kontakt s navrhovanou hmotou","d":" V ďalšom stupni dokumentácie požadujeme vykonať DKP. Upresniť či vjazd z Jégého ulice je na povrchové parkovisko (3.3. Zastovavcia situácia) alebo ideo  vjazd do podzemných garáži (3.10. Hmotovo-priestorové riešenie). Riešené územie napojiť na plánovanú ","upnz":null}},{"type":"Feature","id":10,"geometry":{"type":"Polygon","coordinates":[[[17.139922,48.159929],[17.141264,48.160479],[17.140817,48.160966],[17.140631,48.160996],[17.139409,48.160493],[17.139922,48.159929]]]},"properties":{"c":97,"mc":"Ružinov","vym":8536,"fp":"502","fn":501,"kp":"Stabil","kn":"I","vys":"Maximálna výška 30 metrov","bf":"nie","u":"naplno využiť potenciál územia vyplývajúci z maximálnej výšky stanovenej UŠ výškového zónovania\ndotvoriť urbánnu štruktúru s formou a intenzitou jestvujúcej zástavby v okolitom území\nrešpektovať existujúcu uličnú čiaru okolitej zástavby\npreferovať formu blokovej zástavby / hmotovo-priestorové riešenie vymedziť takým spôsobom, aby bolo možné jednoznačne určiť plochu bloku a jeho hrany s verejným priestranstvom\nvytvárať hierarchiu a kvalitu verejných a poloverejných priestorov\nvyužiť v území kompozičné akcenty\nvytvoriť aktívny parter pozdĺž uličnej čiary\nupozorňujeme na Vyhlášku Ministerstva zdr","d":"V ďalšom stupni dokumentácie požadujeme vypracovanie DKP pri napojeniach na existujúcu cestnú sieť a posúdiť zateženie priľahlej križovatky Bajkalská/Trmavská cesta. Doplniť návrh napojenia riešeného územia na plánovanú cylistickú sieť na ulici Bajkalská.","upnz":null}},{"type":"Feature","id":11,"geometry":{"type":"Polygon","coordinates":[[[17.134935,48.14226],[17.13528,48.142249],[17.135588,48.14361],[17.135137,48.14366],[17.135112,48.143547],[17.135005,48.143558],[17.134951,48.143328],[17.135006,48.143323],[17.134928,48.143075],[17.134877,48.142645],[17.134997,48.142559],[17.134935,48.14226]]]},"properties":{"c":102,"mc":"Ružinov","vym":4824,"fp":"201","fn":101,"kp":"Stabil","kn":"I","vys":"Maximálna výška 11 metrov","bf":"nie","u":"Lokalita je bude súčasťou Mestskej urbanistickej štúdie Mlynské Nivy","d":"Lokalita je bude súčasťou Mestskej urbanistickej štúdie Mlynské Nivy","upnz":null}},{"type":"Feature","id":12,"geometry":{"type":"Polygon","coordinates":[[[17.101074,48.13525],[17.100921,48.135247],[17.100524,48.134994],[17.100341,48.134937],[17.098984,48.13464],[17.097078,48.133589],[17.096423,48.13318],[17.096388,48.13306],[17.096506,48.133027],[17.097412,48.132332],[17.099817,48.132252],[17.099817,48.132312],[17.100016,48.132305],[17.100014,48.132244],[17.102705,48.132139],[17.103252,48.132403],[17.103863,48.132968],[17.104162,48.133344],[17.104491,48.13389],[17.10458,48.134175],[17.104556,48.135306],[17.101074,48.13525]]]},"properties":{"c":56,"mc":"Petržalka","vym":146382,"fp":"201","fn":501,"kp":"<Null>","kn":"","vys":"Maximálna výška 21 metrov","bf":"nie","u":"dotvoriť urbánnu štruktúru s formou a intenzitou jestvujúcej zástavby v okolitom území\npreferovať formu blokovej zástavby / hmotovo-priestorové riešenie vymedziť takým spôsobom, aby bolo možné jednoznačne určiť plochu bloku a jeho hrany s verejným priestranstvom\nvytvárať hierarchiu a kvalitu verejných a poloverejných priestorov\njednoznačne definovať hranicu medzi zástavaným územím a voľnou krajinou\nrešpektovať priehľady v území\nvyužiť potenciál vyhliadkových bodov v území\nvyužiť v území kompozičné akcenty\nvytvoriť pobytové verejné priestory\nvytvoriť polyfunkčné územie s pracovnými príležitosťa","d":"V ďalšom stupni dokumentácie požadujeme vypracovanie DKP, návrh riešenia dopravného napojenia na Einsteinovu a Viedenskú cestu a pešiu dostupnosť na zastávky MHD.","upnz":null}},{"type":"Feature","id":13,"geometry":{"type":"Polygon","coordinates":[[[17.131271,48.179036],[17.131357,48.179214],[17.13125,48.179268],[17.132744,48.182085],[17.132548,48.182123],[17.132593,48.182196],[17.131044,48.18288],[17.130995,48.182837],[17.130865,48.182868],[17.130035,48.182153],[17.129668,48.181775],[17.129482,48.18147],[17.129107,48.180225],[17.129007,48.180038],[17.131271,48.179036]]]},"properties":{"c":62,"mc":"Nové Mesto","vym":67970,"fp":"301","fn":null,"kp":"Stabil","kn":"H, H","vys":"Maximálna výška 30 metrov","bf":"Registrovaný brownfield","u":"naplno využiť potenciál územia vyplývajúci z maximálnej výšky stanovenej UŠ výškového zónovania\nvytvoriť priechodnú, efektívnu, priestorovo zrozumiteľnú a kompaktnú urbánnu štruktúru s ohľadom na polohu v rámci mesta\nrešpektovať existujúcu uličnú čiaru okolitej zástavby\npreferovať formu blokovej zástavby / hmotovo-priestorové riešenie vymedziť takým spôsobom, aby bolo možné jednoznačne určiť plochu bloku a jeho hrany s verejným priestranstvom\nvytvárať hierarchiu a kvalitu verejných a poloverejných priestorov\nvyužiť v území kompozičné akcenty\nvytvoriť aktívny parter pozdĺž uličnej čiary\nvytvori","d":"Požadujeme dopracovať DKP vrátane predĺženia Odboráraskej ulice podľa platného UPN.","upnz":null}},{"type":"Feature","id":14,"geometry":{"type":"Polygon","coordinates":[[[17.19428,48.171934],[17.195414,48.172155],[17.194853,48.173088],[17.193775,48.172908],[17.19428,48.171934]]]},"properties":{"c":58,"mc":"Ružinov","vym":8848,"fp":"201","fn":101,"kp":"H","kn":"H","vys":"Maximálna výška 30 metrov","bf":"Registrovaný brownfield","u":"vytvoriť priechodnú, efektívnu, priestorovo zrozumiteľnú a kompaktnú urbánnu štruktúru s ohľadom na polohu v rámci mesta\nvytvárať hierarchiu a kvalitu verejných a poloverejných priestorov\nreagovať na deficit občianskej vybavenosti generovaný nárastom počtu obyvateľov zmenou ÚPN\nupozorňujeme na Vyhlášku Ministerstva zdravotníctva Slovenskej republiky č. 549/2007 Z. z. v znení neskorších predpisov a Zákon č. 2/2005 Z. z. v znení neskorších predpisov.\ndodržiavať základné kritériá umiestňovania bývania (Kapitola 3.1.2. Záväznej časti ÚPN)\nkoordinovať návrh s investičnými zámermi mesta v kontaktnom","d":"V ďalšom stupni dokumentácie požadujeme vypracovanie DKP.","upnz":null}},{"type":"Feature","id":15,"geometry":{"type":"Polygon","coordinates":[[[17.150844,48.146715],[17.153121,48.146947],[17.152752,48.148411],[17.152651,48.14854],[17.152478,48.149123],[17.150147,48.148789],[17.150232,48.148267],[17.150557,48.147538],[17.150844,48.146715]]]},"properties":{"c":59,"mc":"Ružinov","vym":18875,"fp":"502","fn":501,"kp":"Stabil","kn":"M","vys":"Maximálna výška 30 metrov","bf":"Registrovaný brownfield","u":"Lokalita je bude súčasťou Mestskej urbanistickej štúdie Mlynské Nivy","d":"Lokalita je bude súčasťou Mestskej urbanistickej štúdie Mlynské Nivy","upnz":null}},{"type":"Feature","id":16,"geometry":{"type":"Polygon","coordinates":[[[17.154084,48.144528],[17.154007,48.144815],[17.154405,48.144828],[17.154726,48.147301],[17.154992,48.14734],[17.154864,48.149253],[17.154062,48.149246],[17.15397,48.148589],[17.152752,48.148411],[17.152651,48.14854],[17.152478,48.149123],[17.152294,48.149098],[17.15245,48.148487],[17.151611,48.148395],[17.151443,48.148976],[17.151358,48.148963],[17.15164,48.148063],[17.151775,48.148081],[17.151702,48.148353],[17.152452,48.14843],[17.152331,48.14836],[17.152371,48.148095],[17.152491,48.148037],[17.15252,48.147673],[17.152049,48.147669],[17.151778,48.147424],[17.15177,48.147329],[17.151922,48.147345],[17.152761,48.144533],[17.152844,48.144586],[17.153042,48.144582],[17.153087,48.144525],[17.154084,48.144528]]]},"properties":{"c":60,"mc":"Ružinov","vym":71659,"fp":"502","fn":101,"kp":"H","kn":"G","vys":"Maximálna výška 30 metrov","bf":"Registrovaný brownfield","u":"Lokalita je bude súčasťou Mestskej urbanistickej štúdie Mlynské Nivy","d":"Lokalita je bude súčasťou Mestskej urbanistickej štúdie Mlynské Nivy","upnz":null}},{"type":"Feature","id":17,"geometry":{"type":"Polygon","coordinates":[[[17.142569,48.146734],[17.144273,48.146616],[17.144126,48.147105],[17.143595,48.147069],[17.143583,48.14752],[17.142706,48.147324],[17.142569,48.146734]]]},"properties":{"c":64,"mc":"Ružinov","vym":7723,"fp":"201","fn":501,"kp":"Stabil","kn":"Stabil","vys":"Maximálna výška 30 metrov","bf":"nie","u":"Lokalita je bude súčasťou Mestskej urbanistickej štúdie Mlynské Nivy","d":"Lokalita je bude súčasťou Mestskej urbanistickej štúdie Mlynské Nivy","upnz":null}},{"type":"Feature","id":18,"geometry":{"type":"Polygon","coordinates":[[[17.141625,48.143487],[17.142086,48.143461],[17.142069,48.143368],[17.142903,48.143317],[17.14305,48.144134],[17.141799,48.144246],[17.141625,48.143487]]]},"properties":{"c":65,"mc":"Ružinov","vym":7332,"fp":"201","fn":501,"kp":"Stabil","kn":"L","vys":"Maximálna výška 30 metrov","bf":"Registrovaný brownfield","u":"Lokalita je bude súčasťou Mestskej urbanistickej štúdie Mlynské Nivy","d":"Lokalita je bude súčasťou Mestskej urbanistickej štúdie Mlynské Nivy","upnz":null}},{"type":"Feature","id":19,"geometry":{"type":"Polygon","coordinates":[[[17.161673,48.17396],[17.162872,48.174536],[17.162258,48.175087],[17.161067,48.17451],[17.161673,48.17396]]]},"properties":{"c":66,"mc":"Nové Mesto","vym":6809,"fp":"201","fn":101,"kp":"H","kn":"H","vys":"Maximálna výška 21 metrov","bf":"Registrovaný brownfield","u":"naplno využiť potenciál územia vyplývajúci z maximálnej výšky stanovenej UŠ výškového zónovania\nvytvoriť priechodnú, efektívnu, priestorovo zrozumiteľnú a kompaktnú urbánnu štruktúru s ohľadom na polohu v rámci mesta\npreferovať formu blokovej zástavby / hmotovo-priestorové riešenie vymedziť takým spôsobom, aby bolo možné jednoznačne určiť plochu bloku a jeho hrany s verejným priestranstvom\nvytvárať hierarchiu a kvalitu verejných a poloverejných priestorov\nvyužiť v území kompozičné akcenty\nvytvoriť pobytové verejné priestory\nreagovať na deficit občianskej vybavenosti generovaný nárastom počtu o","d":"V ďalšom stupni dokumentácie požadujeme vypracovanie DKP.","upnz":"Rozpracovaný ÚPNZ Mierová kolónia"}},{"type":"Feature","id":20,"geometry":{"type":"Polygon","coordinates":[[[17.115509,48.153111],[17.115147,48.152577],[17.116779,48.152033],[17.117283,48.152131],[17.116325,48.152663],[17.116168,48.152525],[17.115844,48.152702],[17.116002,48.152841],[17.115509,48.153111]]]},"properties":{"c":67,"mc":"Staré Mesto","vym":6302,"fp":"201","fn":101,"kp":"L","kn":"M","vys":"Maximálna výška 30 metrov","bf":"Registrovaný brownfield","u":"naplno využiť potenciál územia vyplývajúci z maximálnej výšky stanovenej UŠ výškového zónovania\ndotvoriť urbánnu štruktúru s formou a intenzitou jestvujúcej zástavby v okolitom území\nrešpektovať existujúcu uličnú čiaru okolitej zástavby\npreferovať formu blokovej zástavby / hmotovo-priestorové riešenie vymedziť takým spôsobom, aby bolo možné jednoznačne určiť plochu bloku a jeho hrany s verejným priestranstvom\nvytvárať hierarchiu a kvalitu verejných a poloverejných priestorov\nrešpektovať priehľady v území\nvyužiť v území kompozičné akcenty\nvytvoriť aktívny parter pozdĺž uličnej čiary\nvytvoriť po","d":"V ďalšom stupni dokumentácie požadujeme vypracovanie DKP a navrhnúť cyklistické napojenie z riešeného územia na plánovanú cyklistickú infraštruktúru podľa platného UPN.","upnz":"Rozpracovaný ÚPNZ CMO severovýchod"}},{"type":"Feature","id":21,"geometry":{"type":"Polygon","coordinates":[[[16.986888,48.223766],[16.987076,48.223809],[16.988215,48.224353],[16.987274,48.22522],[16.985754,48.224696],[16.986821,48.223772],[16.986888,48.223766]]]},"properties":{"c":72,"mc":"Devínska Nová Ves","vym":15538,"fp":"502, 1110","fn":501,"kp":"D","kn":"G","vys":"Maximálna výška 16 metrov","bf":"Registrovaný brownfield","u":"naplno využiť potenciál územia vyplývajúci z maximálnej výšky stanovenej UŠ výškového zónovania\nvytvoriť priechodnú, efektívnu, priestorovo zrozumiteľnú a kompaktnú urbánnu štruktúru s ohľadom na polohu v rámci mesta\npreferovať formu blokovej zástavby / hmotovo-priestorové riešenie vymedziť takým spôsobom, aby bolo možné jednoznačne určiť plochu bloku a jeho hrany s verejným priestranstvom\nvytvárať hierarchiu a kvalitu verejných a poloverejných priestorov\nvyužiť v území kompozičné akcenty\nvytvoriť pobytové verejné priestory\nreagovať na deficit občianskej vybavenosti generovaný nárastom počtu o","d":"Požadujeme vypracovanie DKP a znížiť podieľ parkovacích miest na povchu v prospech parkovania v PG. ","upnz":"Rozpracovaný ÚPNZ Kolónia"}},{"type":"Feature","id":22,"geometry":{"type":"Polygon","coordinates":[[[17.143588,48.144143],[17.14305,48.144134],[17.142903,48.143317],[17.142069,48.143368],[17.142086,48.143461],[17.141625,48.143487],[17.141502,48.142948],[17.143184,48.142816],[17.143588,48.144143]]]},"properties":{"c":73,"mc":"Ružinov","vym":9078,"fp":"201","fn":501,"kp":"Stabil","kn":"J","vys":"Maximálna výška 30 metrov","bf":"Registrovaný brownfield","u":"Lokalita je bude súčasťou Mestskej urbanistickej štúdie Mlynské Nivy","d":"Lokalita je bude súčasťou Mestskej urbanistickej štúdie Mlynské Nivy","upnz":null}},{"type":"Feature","id":23,"geometry":{"type":"Polygon","coordinates":[[[17.095104,48.118828],[17.095261,48.11894],[17.096615,48.1206],[17.096249,48.120717],[17.095972,48.120316],[17.095509,48.120521],[17.09583,48.120861],[17.095608,48.120929],[17.094107,48.1192],[17.095104,48.118828]]]},"properties":{"c":75,"mc":"Petržalka","vym":17814,"fp":"501","fn":101,"kp":"M","kn":"G","vys":"Maximálna výška 46 metrov","bf":"Registrovaný brownfield, registrovaná envirozáťaž","u":"naplno využiť potenciál územia vyplývajúci z maximálnej výšky stanovenej UŠ výškového zónovania\nvytvoriť priechodnú, efektívnu, priestorovo zrozumiteľnú a kompaktnú urbánnu štruktúru s ohľadom na polohu v rámci mesta\npreferovať formu blokovej zástavby / hmotovo-priestorové riešenie vymedziť takým spôsobom, aby bolo možné jednoznačne určiť plochu bloku a jeho hrany s verejným priestranstvom\nvytvárať hierarchiu a kvalitu verejných a poloverejných priestorov\nvyužiť v území kompozičné akcenty\nvytvoriť aktívny parter pozdĺž uličnej čiary\nvytvoriť pobytové verejné priestory\nvytvoriť polyfunkčné územ","d":"Projekt je už vo výstavbe a DKP bolo spracované. Pri návrhu zmeny funkčnej plochy sa počet parkovacích miest nemení.","upnz":"Spracovanie ÚPNZ Matador zrušené"}},{"type":"Feature","id":24,"geometry":{"type":"Polygon","coordinates":[[[16.982915,48.220218],[16.984627,48.22086],[16.983876,48.221875],[16.981591,48.220771],[16.982108,48.219969],[16.982915,48.220218]]]},"properties":{"c":77,"mc":"Devínska Nová Ves","vym":23456,"fp":"501","fn":101,"kp":"G","kn":"G","vys":"Maximálna výška 21 metrov","bf":"nie","u":"naplno využiť potenciál územia vyplývajúci z maximálnej výšky stanovenej UŠ výškového zónovania\nvytvoriť priechodnú, efektívnu, priestorovo zrozumiteľnú a kompaktnú urbánnu štruktúru s ohľadom na polohu v rámci mesta\npreferovať formu blokovej zástavby / hmotovo-priestorové riešenie vymedziť takým spôsobom, aby bolo možné jednoznačne určiť plochu bloku a jeho hrany s verejným priestranstvom\nvytvárať hierarchiu a kvalitu verejných a poloverejných priestorov\nvyužiť v území kompozičné akcenty\nvytvoriť pobytové verejné priestory\nreagovať na deficit občianskej vybavenosti generovaný nárastom počtu o","d":"Projekt má schválenu EIU, vypracované DKP a momentálne podanú žiadosť na úzené rozhodnutie. ","upnz":null}},{"type":"Feature","id":25,"geometry":{"type":"Polygon","coordinates":[[[16.982108,48.219969],[16.982205,48.219807],[16.9848,48.220664],[16.984627,48.22086],[16.982915,48.220218],[16.982108,48.219969]]]},"properties":{"c":78,"mc":"Devínska Nová Ves","vym":5353,"fp":"501","fn":101,"kp":"G","kn":"G","vys":"Maximálna výška 21 metrov","bf":"nie","u":"naplno využiť potenciál územia vyplývajúci z maximálnej výšky stanovenej UŠ výškového zónovania\nvytvoriť priechodnú, efektívnu, priestorovo zrozumiteľnú a kompaktnú urbánnu štruktúru s ohľadom na polohu v rámci mesta\npreferovať formu blokovej zástavby / hmotovo-priestorové riešenie vymedziť takým spôsobom, aby bolo možné jednoznačne určiť plochu bloku a jeho hrany s verejným priestranstvom\nvytvárať hierarchiu a kvalitu verejných a poloverejných priestorov\nvyužiť v území kompozičné akcenty\nvytvoriť pobytové verejné priestory\nreagovať na deficit občianskej vybavenosti generovaný nárastom počtu o","d":"Projekt má schválenu EIU, vypracované DKP a momentálne podanú žiadosť na úzené rozhodnutie.","upnz":null}},{"type":"Feature","id":26,"geometry":{"type":"Polygon","coordinates":[[[17.166759,48.21607],[17.167365,48.215523],[17.167551,48.215473],[17.168878,48.216299],[17.168277,48.216806],[17.168196,48.216768],[17.168261,48.216712],[17.168144,48.216661],[17.168049,48.216697],[17.166759,48.21607]]]},"properties":{"c":79,"mc":"Rača","vym":9942,"fp":"502","fn":101,"kp":"E","kn":"E","vys":"Maximálna výška 16 metrov","bf":"nie","u":"vytvoriť priechodnú, efektívnu, priestorovo zrozumiteľnú a kompaktnú urbánnu štruktúru s ohľadom na polohu v rámci mesta\nrešpektovať existujúcu uličnú čiaru okolitej zástavby\nvytvárať hierarchiu a kvalitu verejných a poloverejných priestorov\nvyužiť v území kompozičné akcenty\nvytvoriť aktívny parter pozdĺž uličnej čiary\nvytvoriť pobytové verejné priestory\nvytvoriť polyfunkčné územie s pracovnými príležitosťami\nreagovať na deficit občianskej vybavenosti generovaný nárastom počtu obyvateľov zmenou ÚPN\nupozorňujeme na Vyhlášku Ministerstva zdravotníctva Slovenskej republiky č. 549/2007 Z. z. v zne","d":"V ďalšom stupni dokumentácie požadujeme vypracovanie DKP.","upnz":null}},{"type":"Feature","id":27,"geometry":{"type":"Polygon","coordinates":[[[17.044536,48.199776],[17.044811,48.199389],[17.045184,48.198617],[17.046989,48.198965],[17.046439,48.199718],[17.046276,48.200184],[17.045692,48.200047],[17.045621,48.200217],[17.045491,48.200353],[17.045608,48.200215],[17.044538,48.200028],[17.04468,48.199814],[17.044536,48.199776]]]},"properties":{"c":80,"mc":"Lamač","vym":22826,"fp":"201","fn":101,"kp":"Stabil","kn":"G","vys":"Maximálna výška 16 metrov","bf":"Registrovaný brownfield","u":"vytvoriť priechodnú, efektívnu, priestorovo zrozumiteľnú a kompaktnú urbánnu štruktúru s ohľadom na polohu v rámci mesta\nrešpektovať existujúcu uličnú čiaru okolitej zástavby\npreferovať formu blokovej zástavby / hmotovo-priestorové riešenie vymedziť takým spôsobom, aby bolo možné jednoznačne určiť plochu bloku a jeho hrany s verejným priestranstvom\nvytvárať hierarchiu a kvalitu verejných a poloverejných priestorov\nvyužiť v území kompozičné akcenty\nvytvoriť pobytové verejné priestory\nreagovať na deficit občianskej vybavenosti generovaný nárastom počtu obyvateľov zmenou ÚPN\nv súlade so zmenou fu","d":"V ďalšom stupni dokumentácie požadujeme vypracovanie DKP a navrhnúť cyklistické napojenie z riešeného územia na plánovanú cyklistickú infraštruktúru podľa platného UPN.","upnz":null}},{"type":"Feature","id":28,"geometry":{"type":"Polygon","coordinates":[[[17.189544,48.134907],[17.191847,48.134985],[17.191823,48.135148],[17.190902,48.135142],[17.190906,48.135275],[17.190784,48.135286],[17.190757,48.135349],[17.190841,48.13535],[17.190833,48.135442],[17.19065,48.135422],[17.190642,48.135718],[17.189939,48.135691],[17.189941,48.135482],[17.189661,48.135491],[17.189544,48.134907]]]},"properties":{"c":81,"mc":"Podunajské Biskupice","vym":8824,"fp":"502","fn":101,"kp":"F","kn":"F","vys":"Maximálna výška 21 metrov","bf":"nie","u":"naplno využiť potenciál územia vyplývajúci z maximálnej výšky stanovenej UŠ výškového zónovania\nvytvoriť priechodnú, efektívnu, priestorovo zrozumiteľnú a kompaktnú urbánnu štruktúru s ohľadom na polohu v rámci mesta\npreferovať formu blokovej zástavby / hmotovo-priestorové riešenie vymedziť takým spôsobom, aby bolo možné jednoznačne určiť plochu bloku a jeho hrany s verejným priestranstvom\nvytvárať hierarchiu a kvalitu verejných a poloverejných priestorov\nvyužiť v území kompozičné akcenty\nvytvoriť pobytové verejné priestory\nvytvoriť polyfunkčné územie s pracovnými príležitosťami\nreagovať na de","d":"V ďalšom stupni dokumentácie je potrebné vypracovať DKP v miestach napojenia na existujúcu cestnú infraštruktúru a znižiť podiel parkovacích miest na povrchu.","upnz":null}},{"type":"Feature","id":29,"geometry":{"type":"Polygon","coordinates":[[[17.131048,48.14406],[17.131677,48.145131],[17.131477,48.145694],[17.128276,48.145991],[17.128269,48.145829],[17.129292,48.144401],[17.130245,48.144775],[17.130718,48.144251],[17.131048,48.14406]]]},"properties":{"c":82,"mc":"Staré Mesto","vym":19492,"fp":"201","fn":101,"kp":"S (nesprávny kód)","kn":"X","vys":"Maximálna výška 30 metrov","bf":"Registrovaná envirozáťaž","u":"naplno využiť potenciál územia vyplývajúci z maximálnej výšky stanovenej UŠ výškového zónovania\ndotvoriť urbánnu štruktúru s formou a intenzitou jestvujúcej zástavby v okolitom území\nrešpektovať existujúcu uličnú čiaru okolitej zástavby\npreferovať formu blokovej zástavby / hmotovo-priestorové riešenie vymedziť takým spôsobom, aby bolo možné jednoznačne určiť plochu bloku a jeho hrany s verejným priestranstvom\nvytvárať hierarchiu a kvalitu verejných a poloverejných priestorov\nrešpektovať priehľady v území\nvyužiť potenciál vyhliadkových bodov v území\nvyužiť v území kompozičné akcenty\nvytvoriť ak","d":"Požadujeme vypracovanie DKP v miestach napojenia na existujúcu cestnú infraštruktúru vrátene posúdenia križíovarky Mlynské nivy/Košická. Zároveň v tomto území požadujeme umiestniť všetky navrhované parkovacie miesta v PG.","upnz":"Platný ÚPNZ Chalupkova"}},{"type":"Feature","id":30,"geometry":{"type":"Polygon","coordinates":[[[17.147232,48.162768],[17.147753,48.162195],[17.14854,48.162515],[17.14802,48.163086],[17.147232,48.162768]]]},"properties":{"c":1,"mc":"Ružinov","vym":5134,"fp":"201","fn":501,"kp":"Stabil","kn":"F","vys":"Maximálna výška 16 metrov","bf":"nie","u":"naplno využiť potenciál územia vyplývajúci z maximálnej výšky stanovenej UŠ výškového zónovania\ndotvoriť urbánnu štruktúru s formou a intenzitou jestvujúcej zástavby v okolitom území\nnavrhovaným riešením definovať uličnú čiaru s ohľadom na uličný profil s územnou rezervou pre chodníky po oboch stranách","d":"Zredukovať počet parkovacích miest na povrchu a všetky tieto parkovacie miesta požadujeme umiestniť na parkovisko v rámci riešeného územia, miho hlavného dopravného priestoru na ulici Teslova.   Pri navrhovanom počte PM nie je potrebné vykonať DKP. ","upnz":"Rozpracovaný ÚPNZ Bajkalská, Drieňová"}},{"type":"Feature","id":31,"geometry":{"type":"Polygon","coordinates":[[[17.143081,48.142329],[17.147679,48.142418],[17.147671,48.14295],[17.147766,48.142957],[17.147653,48.144223],[17.143588,48.144143],[17.143184,48.142816],[17.143081,48.142329]]]},"properties":{"c":3,"mc":"Ružinov","vym":68611,"fp":"201","fn":501,"kp":"Stabil","kn":"J","vys":"Maximálna výška 30 metrov","bf":"Registrovaný brownfield","u":"Lokalita je bude súčasťou Mestskej urbanistickej štúdie Mlynské Nivy","d":"Lokalita je bude súčasťou Mestskej urbanistickej štúdie Mlynské Nivy","upnz":null}},{"type":"Feature","id":32,"geometry":{"type":"Polygon","coordinates":[[[17.142949,48.142827],[17.141502,48.142948],[17.141355,48.142297],[17.143081,48.142329],[17.143184,48.142816],[17.142949,48.142827]]]},"properties":{"c":4,"mc":"Ružinov","vym":8340,"fp":"201","fn":501,"kp":"Stabil","kn":"J","vys":"Maximálna výška 30 metrov","bf":"Registrovaný brownfield","u":"Lokalita je bude súčasťou Mestskej urbanistickej štúdie Mlynské Nivy","d":"Lokalita je bude súčasťou Mestskej urbanistickej štúdie Mlynské Nivy","upnz":null}},{"type":"Feature","id":33,"geometry":{"type":"Polygon","coordinates":[[[17.142598,48.173472],[17.142694,48.173572],[17.141458,48.174139],[17.14112,48.17372],[17.140569,48.173317],[17.140567,48.173105],[17.141696,48.172541],[17.142598,48.173472]]]},"properties":{"c":5,"mc":"Nové Mesto","vym":15154,"fp":"201","fn":501,"kp":"I","kn":"I","vys":"Maximálna výška 30 metrov, uzlový priestor lokálneho významu","bf":"nie","u":"naplno využiť potenciál územia vyplývajúci z maximálnej výšky stanovenej UŠ výškového zónovania\nvytvoriť priechodnú, efektívnu, priestorovo zrozumiteľnú a kompaktnú urbánnu štruktúru s ohľadom na polohu v rámci mesta\nrešpektovať existujúcu uličnú čiaru okolitej zástavby\npreferovať formu blokovej zástavby / hmotovo-priestorové riešenie vymedziť takým spôsobom, aby bolo možné jednoznačne určiť plochu bloku a jeho hrany s verejným priestranstvom\nvytvárať hierarchiu a kvalitu verejných a poloverejných priestorov\nvyužiť v území kompozičné akcenty\nvytvoriť aktívny parter pozdĺž uličnej čiary\nvytvori","d":"V návrhu zakreslené predlženie Tomášikovej nekorešponduje s trasovaním podľa UPN. V ďalšom stupni dokumentácie požadujeme vypracovanie DKP.","upnz":"Rozpracovaný ÚPNZ Zátišie - Hattalova"}},{"type":"Feature","id":34,"geometry":{"type":"Polygon","coordinates":[[[17.120023,48.093638],[17.120853,48.093285],[17.121178,48.093338],[17.121359,48.093481],[17.121369,48.093847],[17.121225,48.09437],[17.120852,48.095182],[17.120802,48.09558],[17.120834,48.095916],[17.120599,48.095929],[17.120693,48.095672],[17.120646,48.095276],[17.120469,48.094891],[17.120085,48.094453],[17.120215,48.093837],[17.120023,48.093638]]]},"properties":{"c":6,"mc":"Petržalka","vym":12688,"fp":"502, 1130","fn":501,"kp":"Stabil, rozvoj","kn":"I","vys":"Maximálna výška 46 metrov","bf":"nie","u":"naplno využiť potenciál územia vyplývajúci z maximálnej výšky stanovenej UŠ výškového zónovania\nvytvoriť priechodnú, efektívnu, priestorovo zrozumiteľnú a kompaktnú urbánnu štruktúru s ohľadom na polohu v rámci mesta\nrešpektovať existujúcu uličnú čiaru okolitej zástavby\nvytvárať hierarchiu a kvalitu verejných a poloverejných priestorov\nvyužiť v území kompozičné akcenty\nvytvoriť pobytové verejné priestory\nupozorňujeme na Vyhlášku Ministerstva zdravotníctva Slovenskej republiky č. 549/2007 Z. z. v znení neskorších predpisov a Zákon č. 2/2005 Z. z. v znení neskorších predpisov.\ndodržiavať základn","d":"V ďalšom stupni dokumentácie požadujeme vypracovanie DKP.","upnz":null}},{"type":"Feature","id":35,"geometry":{"type":"Polygon","coordinates":[[[17.120085,48.094453],[17.119747,48.094265],[17.11939,48.094185],[17.118373,48.094238],[17.118345,48.094015],[17.119139,48.093937],[17.120023,48.093708],[17.12011,48.093728],[17.120215,48.093837],[17.120085,48.094453]]]},"properties":{"c":7,"mc":"Petržalka","vym":5900,"fp":"502","fn":501,"kp":"Stabil","kn":"I","vys":"Maximálna výška 46 metrov","bf":"nie","u":"naplno využiť potenciál územia vyplývajúci z maximálnej výšky stanovenej UŠ výškového zónovania\nvytvoriť priechodnú, efektívnu, priestorovo zrozumiteľnú a kompaktnú urbánnu štruktúru s ohľadom na polohu v rámci mesta\nrešpektovať existujúcu uličnú čiaru okolitej zástavby\nvytvárať hierarchiu a kvalitu verejných a poloverejných priestorov\nvytvoriť pobytové verejné priestory\nupozorňujeme na Vyhlášku Ministerstva zdravotníctva Slovenskej republiky č. 549/2007 Z. z. v znení neskorších predpisov a Zákon č. 2/2005 Z. z. v znení neskorších predpisov.\ndodržiavať základné kritériá umiestňovania bývania (","d":"V ďalšom stupni dokumentácie požadujeme vypracovanie DKP.","upnz":null}},{"type":"Feature","id":36,"geometry":{"type":"Polygon","coordinates":[[[17.172925,48.172649],[17.172293,48.173195],[17.171438,48.172795],[17.171022,48.173103],[17.170794,48.172983],[17.171207,48.172657],[17.171074,48.172581],[17.171587,48.17222],[17.171737,48.172295],[17.171909,48.172157],[17.171719,48.172057],[17.171751,48.172033],[17.172141,48.17219],[17.172093,48.172229],[17.17285,48.172649],[17.172925,48.172649]]]},"properties":{"c":9,"mc":"Ružinov","vym":13381,"fp":"201","fn":101,"kp":"<Null>","kn":"G","vys":"Maximálna výška 30 metrov","bf":"nie","u":"dotvoriť urbánnu štruktúru s formou a intenzitou jestvujúcej zástavby v okolitom území\nrešpektovať existujúcu uličnú čiaru okolitej zástavby\nvytvárať hierarchiu a kvalitu verejných a poloverejných priestorov\nupozorňujeme na Vyhlášku Ministerstva zdravotníctva Slovenskej republiky č. 549/2007 Z. z. v znení neskorších predpisov a Zákon č. 2/2005 Z. z. v znení neskorších predpisov.\nrozšíriť riešené územie o priľahlú severnú časť po Galvaniho ulicu","d":"V ďalšom stupni dokumentácie požadujeme vypracovanie DPK v miestach napojenia na existujúcu cestnú infraštruktúru a priľahlích križovatkách.","upnz":"Platný ÚPNZ Trnávka stred"}},{"type":"Feature","id":37,"geometry":{"type":"Polygon","coordinates":[[[17.13187,48.173671],[17.132885,48.174781],[17.133795,48.175661],[17.132187,48.176277],[17.130529,48.176845],[17.130293,48.176092],[17.130348,48.176032],[17.130149,48.175857],[17.130232,48.175822],[17.129768,48.174533],[17.13187,48.173671]]]},"properties":{"c":12,"mc":"Nové Mesto","vym":49310,"fp":"502, 201","fn":null,"kp":"<Null>","kn":"M, G","vys":"Maximálna výška 16 metrov","bf":"Registrovaný brownfield","u":"vytvoriť priechodnú, efektívnu, priestorovo zrozumiteľnú a kompaktnú urbánnu štruktúru s ohľadom na polohu v rámci mesta\nrešpektovať existujúcu uličnú čiaru okolitej zástavby\npreferovať formu blokovej zástavby / hmotovo-priestorové riešenie vymedziť takým spôsobom, aby bolo možné jednoznačne určiť plochu bloku a jeho hrany s verejným priestranstvom\nvytvárať hierarchiu a kvalitu verejných a poloverejných priestorov\nvyužiť v území kompozičné akcenty\nvytvoriť aktívny parter pozdĺž uličnej čiary\nvytvoriť pobytové verejné priestory\nvytvoriť polyfunkčné územie s pracovnými príležitosťami\nreagovať na","d":"Požadujeme vypracovanie DKP a doložiť výpočet navrhovaneho počtu parkovacích miest. Riešené uzemie je potrebné napojiť na planovanú cyklistický infraštruktúru v blízkosti riešeného uzemia podľa platného UPN.","upnz":"Rozpracovaný ÚPNZ Zátišie - Hattalova"}},{"type":"Feature","id":38,"geometry":{"type":"Polygon","coordinates":[[[17.084313,48.10708],[17.082612,48.10901],[17.081626,48.10819],[17.081964,48.10777],[17.081416,48.107081],[17.081792,48.10692],[17.081801,48.106714],[17.08174,48.106606],[17.081381,48.106501],[17.08174,48.106215],[17.084313,48.10708]]]},"properties":{"c":44,"mc":"Petržalka","vym":37961,"fp":"501","fn":101,"kp":"G","kn":"G","vys":"Maximálna výška 21 metrov","bf":"Registrovaná envirozáťaž","u":"vytvoriť priechodnú, efektívnu, priestorovo zrozumiteľnú a kompaktnú urbánnu štruktúru s ohľadom na polohu v rámci mesta\npreferovať formu blokovej zástavby / hmotovo-priestorové riešenie vymedziť takým spôsobom, aby bolo možné jednoznačne určiť plochu bloku a jeho hrany s verejným priestranstvom\nvytvárať hierarchiu a kvalitu verejných a poloverejných priestorov\njednoznačne definovať hranicu medzi zástavaným územím a voľnou krajinou\nvytvoriť aktívny parter pozdĺž uličnej čiary\nvytvoriť pobytové verejné priestory\nvytvoriť polyfunkčné územie s pracovnými príležitosťami\nreagovať na deficit občians","d":"Projekt je už vo výstavbe a DKP bolo spracované. ","upnz":null}},{"type":"Feature","id":39,"geometry":{"type":"Polygon","coordinates":[[[17.08174,48.106215],[17.082557,48.105681],[17.083364,48.106267],[17.084219,48.105991],[17.084995,48.106571],[17.084476,48.107135],[17.08174,48.106215]]]},"properties":{"c":43,"mc":"Petržalka","vym":14656,"fp":"201","fn":101,"kp":"F","kn":"G","vys":"Maximálna výška 21 metrov","bf":"Registrovaná envirozáťaž","u":"naplno využiť potenciál územia vyplývajúci z maximálnej výšky stanovenej UŠ výškového zónovania\nvytvoriť priechodnú, efektívnu, priestorovo zrozumiteľnú a kompaktnú urbánnu štruktúru s ohľadom na polohu v rámci mesta\npreferovať formu blokovej zástavby / hmotovo-priestorové riešenie vymedziť takým spôsobom, aby bolo možné jednoznačne určiť plochu bloku a jeho hrany s verejným priestranstvom\nvytvárať hierarchiu a kvalitu verejných a poloverejných priestorov\njednoznačne definovať hranicu medzi zástavaným územím a voľnou krajinou\nvyužiť v území kompozičné akcenty\nvytvoriť aktívny parter pozdĺž uli","d":"Projekt je už vo výstavbe a DKP bolo spracované. ","upnz":null}},{"type":"Feature","id":40,"geometry":{"type":"Polygon","coordinates":[[[17.143934,48.204468],[17.143239,48.203762],[17.14383,48.203456],[17.14397,48.203477],[17.144061,48.20341],[17.144654,48.203883],[17.143934,48.204468]]]},"properties":{"c":42,"mc":"Rača","vym":5975,"fp":"501","fn":101,"kp":"F","kn":"F","vys":"Maximálna výška 30 metrov","bf":"nie","u":"vytvoriť priechodnú, efektívnu, priestorovo zrozumiteľnú a kompaktnú urbánnu štruktúru s ohľadom na polohu v rámci mesta\npreferovať formu blokovej zástavby / hmotovo-priestorové riešenie vymedziť takým spôsobom, aby bolo možné jednoznačne určiť plochu bloku a jeho hrany s verejným priestranstvom\nvytvárať hierarchiu a kvalitu verejných a poloverejných priestorov\njednoznačne definovať hranicu medzi zástavaným územím a voľnou krajinou\nrešpektovať priehľady v území\nvyužiť v území kompozičné akcenty\nvytvoriť pobytové verejné priestory\nreagovať na deficit občianskej vybavenosti generovaný nárastom p","d":"Doplniť výkres širších vzťahov s navrhnutím dopravného napojením na existujúcu infraštruktúru.","upnz":null}},{"type":"Feature","id":41,"geometry":{"type":"Polygon","coordinates":[[[17.146176,48.203895],[17.14543,48.204371],[17.145514,48.204421],[17.145475,48.204682],[17.145206,48.204957],[17.144776,48.205215],[17.143934,48.204468],[17.144654,48.203883],[17.14503,48.204132],[17.145934,48.203641],[17.146176,48.203895]]]},"properties":{"c":41,"mc":"Rača","vym":11278,"fp":"501","fn":101,"kp":"F","kn":"F","vys":"Maximálna výška 30 metrov","bf":"nie","u":"vytvoriť priechodnú, efektívnu, priestorovo zrozumiteľnú a kompaktnú urbánnu štruktúru s ohľadom na polohu v rámci mesta\npreferovať formu blokovej zástavby / hmotovo-priestorové riešenie vymedziť takým spôsobom, aby bolo možné jednoznačne určiť plochu bloku a jeho hrany s verejným priestranstvom\nvytvárať hierarchiu a kvalitu verejných a poloverejných priestorov\njednoznačne definovať hranicu medzi zástavaným územím a voľnou krajinou\nrešpektovať priehľady v území\nvyužiť v území kompozičné akcenty\nvytvoriť pobytové verejné priestory\nreagovať na deficit občianskej vybavenosti generovaný nárastom p","d":"DKP už bolo vypracované a vydané aj súhlasné stanovisko MAG","upnz":null}},{"type":"Feature","id":42,"geometry":{"type":"Polygon","coordinates":[[[17.050275,48.171113],[17.050378,48.170349],[17.050474,48.170448],[17.051,48.170488],[17.051225,48.170689],[17.051393,48.170992],[17.052681,48.171142],[17.052928,48.171054],[17.05291,48.171211],[17.050387,48.171209],[17.050399,48.171125],[17.050275,48.171113]]]},"properties":{"c":39,"mc":"Dúbravka","vym":8092,"fp":"201","fn":101,"kp":"<Null>","kn":"H","vys":"Maximálna výška 11 metrov","bf":"nie","u":"vytvoriť priechodnú, efektívnu, priestorovo zrozumiteľnú a kompaktnú urbánnu štruktúru s ohľadom na polohu v rámci mesta\nrešpektovať existujúcu uličnú čiaru okolitej zástavby\npreferovať formu blokovej zástavby / hmotovo-priestorové riešenie vymedziť takým spôsobom, aby bolo možné jednoznačne určiť plochu bloku a jeho hrany s verejným priestranstvom\njednoznačne definovať hranicu medzi zástavaným územím a voľnou krajinou\nvyužiť v území kompozičné akcenty\nvytvoriť aktívny parter pozdĺž uličnej čiary\nvytvoriť pobytové verejné priestory\nreagovať na deficit občianskej vybavenosti generovaný nárastom","d":"V ďalšom stupni dokumentácie požadujeme vypracovanie DKP.","upnz":null}},{"type":"Feature","id":43,"geometry":{"type":"Polygon","coordinates":[[[17.149889,48.06036],[17.149174,48.061047],[17.149354,48.062534],[17.149148,48.063495],[17.150417,48.063883],[17.148742,48.065224],[17.147142,48.06382],[17.146563,48.062774],[17.14637,48.062323],[17.146142,48.061576],[17.146101,48.061112],[17.146213,48.060157],[17.149993,48.06026],[17.149889,48.06036]]]},"properties":{"c":125,"mc":"Rusovce","vym":97933,"fp":"102, 201, 401","fn":null,"kp":"C, X","kn":"D","vys":"Maximálna výška 11 metrov","bf":"nie","u":"vytvoriť priechodnú, efektívnu, priestorovo zrozumiteľnú a kompaktnú urbánnu štruktúru s ohľadom na polohu v rámci mesta\npreferovať formu blokovej zástavby / hmotovo-priestorové riešenie vymedziť takým spôsobom, aby bolo možné jednoznačne určiť plochu bloku a jeho hrany s verejným priestranstvom\nvytvárať hierarchiu a kvalitu verejných a poloverejných priestorov\njednoznačne definovať hranicu medzi zástavaným územím a voľnou krajinou\nrešpektovať priehľady v území\nvyužiť v území kompozičné akcenty\nvytvoriť pobytové verejné priestory\nvytvoriť polyfunkčné územie s pracovnými príležitosťami\nreagovať","d":"Požadujeme upresniť navrhovaný počet parkovacích miest. Požadujeme vypracovať DKP pre celé riešené uzemie v rámci klastru. Projekt má už UŠ.","upnz":"Platný ÚPNZ Pamiatkové Rusovce Sever"}},{"type":"Feature","id":44,"geometry":{"type":"MultiPolygon","coordinates":[[[[17.112931,48.091621],[17.110894,48.091653],[17.110987,48.093738],[17.109602,48.093772],[17.109388,48.090248],[17.112876,48.090159],[17.112931,48.091621]]],[[[17.100245,48.096059],[17.100083,48.096051],[17.099969,48.095268],[17.099952,48.094877],[17.100037,48.093846],[17.101493,48.091779],[17.102189,48.092016],[17.104346,48.092338],[17.107807,48.092291],[17.107825,48.092602],[17.104378,48.092708],[17.103849,48.092755],[17.10286,48.093015],[17.102088,48.093508],[17.101817,48.093777],[17.101534,48.094192],[17.102226,48.095148],[17.101314,48.09579],[17.101022,48.096097],[17.100245,48.096059]]]]},"properties":{"c":93,"mc":"Petržalka","vym":114313,"fp":"201","fn":null,"kp":"I, G, I","kn":"I, G, I","vys":"Maximálna výška 30 metrov","bf":"Registrovaná envirozáťaž","u":"naplno využiť potenciál územia vyplývajúci z maximálnej výšky stanovenej UŠ výškového zónovania\nvytvoriť priechodnú, efektívnu, priestorovo zrozumiteľnú a kompaktnú urbánnu štruktúru s ohľadom na polohu v rámci mesta\npreferovať formu blokovej zástavby / hmotovo-priestorové riešenie vymedziť takým spôsobom, aby bolo možné jednoznačne určiť plochu bloku a jeho hrany s verejným priestranstvom\nvytvárať hierarchiu a kvalitu verejných a poloverejných priestorov\njednoznačne definovať hranicu medzi zástavaným územím a voľnou krajinou\nrešpektovať priehľady v území\nvyužiť v území kompozičné akcenty\nvytv","d":"V ďalšom stupni dokumentácie požadujeme vypracovanie DKP.","upnz":null}},{"type":"Feature","id":45,"geometry":{"type":"Polygon","coordinates":[[[17.191774,48.171572],[17.189872,48.174858],[17.189627,48.175463],[17.188631,48.173991],[17.190157,48.17137],[17.191774,48.171572]]]},"properties":{"c":37,"mc":"Ružinov","vym":48567,"fp":"201","fn":101,"kp":"H","kn":"H","vys":"Maximálna výška 30 metrov","bf":"nie","u":"vytvoriť priechodnú, efektívnu, priestorovo zrozumiteľnú a kompaktnú urbánnu štruktúru s ohľadom na polohu v rámci mesta\nvytvárať hierarchiu a kvalitu verejných a poloverejných priestorov\nreagovať na deficit občianskej vybavenosti generovaný nárastom počtu obyvateľov zmenou ÚPN\nupozorňujeme na Vyhlášku Ministerstva zdravotníctva Slovenskej republiky č. 549/2007 Z. z. v znení neskorších predpisov a Zákon č. 2/2005 Z. z. v znení neskorších predpisov.\ndodržiavať základné kritériá umiestňovania bývania (Kapitola 3.1.2. Záväznej časti ÚPN)\nkoordinovať návrh s investičnými zámermi mesta v kontaktnom","d":"V ďalšom stupni dokumentácie požadujeme vypracovanie DKP.","upnz":null}},{"type":"Feature","id":46,"geometry":{"type":"Polygon","coordinates":[[[17.212635,48.150118],[17.212361,48.15111],[17.209657,48.150288],[17.209781,48.150197],[17.210071,48.149789],[17.212635,48.150118]]]},"properties":{"c":33,"mc":"Vrakuňa","vym":18038,"fp":"501","fn":101,"kp":"E","kn":"F","vys":"Maximálna výška 16 metrov","bf":"Registrovaný brownfield","u":"dotvoriť urbánnu štruktúru s formou a intenzitou jestvujúcej zástavby v okolitom území\nrešpektovať existujúcu uličnú čiaru okolitej zástavby\npreferovať formu blokovej zástavby / hmotovo-priestorové riešenie vymedziť takým spôsobom, aby bolo možné jednoznačne určiť plochu bloku a jeho hrany s verejným priestranstvom\nvytvárať hierarchiu a kvalitu verejných a poloverejných priestorov\nvyužiť v území kompozičné akcenty\nvytvoriť pobytové verejné priestory\nreagovať na deficit občianskej vybavenosti generovaný nárastom počtu obyvateľov zmenou ÚPN\nrozšíriť riešené územie po Malý Dunaj","d":"V ďalšom stupni dokumentácie je potrebné vypracovať DKP v miestach napojenia na existujúcu cestnú infraštruktúru a navrhnúť cyklistické napojenie na priľahlú cylistickú infraštruktúru pri ramene Malého Dunaja.","upnz":"Platný ÚPNZ Horné diely"}},{"type":"Feature","id":47,"geometry":{"type":"Polygon","coordinates":[[[17.054806,48.175382],[17.055392,48.175169],[17.055702,48.17577],[17.056159,48.175703],[17.056289,48.175871],[17.054574,48.176222],[17.054521,48.176119],[17.054293,48.176155],[17.053933,48.176019],[17.054985,48.17586],[17.054806,48.175382]]]},"properties":{"c":32,"mc":"Dúbravka","vym":7220,"fp":"102","fn":102,"kp":"B","kn":"E","vys":"Maximálna výška 11 metrov","bf":"nie","u":"naplno využiť potenciál územia vyplývajúci z maximálnej výšky stanovenej UŠ výškového zónovania\nvytvoriť priechodnú, efektívnu, priestorovo zrozumiteľnú a kompaktnú urbánnu štruktúru s ohľadom na polohu v rámci mesta\npreferovať formu blokovej zástavby / hmotovo-priestorové riešenie vymedziť takým spôsobom, aby bolo možné jednoznačne určiť plochu bloku a jeho hrany s verejným priestranstvom\nvytvárať hierarchiu a kvalitu verejných a poloverejných priestorov\njednoznačne definovať hranicu medzi zástavaným územím a voľnou krajinou\nvytvoriť pobytové verejné priestory\nvytvoriť nástupný bod do krajinn","d":"Vzhľadom na počet parkovacích miest (169) nie je nutné vykonať DKP ale požaduje sa, zredukovať počet parkovacích miest na povrchu.","upnz":null}},{"type":"Feature","id":48,"geometry":{"type":"Polygon","coordinates":[[[17.155183,48.158797],[17.155716,48.158838],[17.155779,48.158483],[17.156169,48.158509],[17.156026,48.159358],[17.155104,48.15929],[17.155183,48.158797]]]},"properties":{"c":31,"mc":"Ružinov","vym":5151,"fp":"201","fn":501,"kp":"Stabil","kn":"Stabil","vys":"Maximálna výška 21 metrov","bf":"nie","u":"rešpektovať existujúcu uličnú čiaru okolitej zástavby\nvytvoriť aktívny parter pozdĺž uličnej čiary\nzachovať priečnu prestupnosť územia pozdĺž severnej hranice lokality","d":"V ďalšom stupni dokumentácie požadujeme vypracovanie DKP na posúdenie Herlianskej ulice a jej napojeniach na Drieňovú a Ružinovskú.","upnz":null}},{"type":"Feature","id":49,"geometry":{"type":"Polygon","coordinates":[[[17.218065,48.120005],[17.218024,48.119987],[17.21856,48.119495],[17.219443,48.119864],[17.218821,48.120409],[17.218065,48.120005]]]},"properties":{"c":30,"mc":"Podunajské Biskupice","vym":5037,"fp":"202","fn":101,"kp":"D","kn":"F","vys":"Maximálna výška 16 metrov","bf":"nie","u":"naplno využiť potenciál územia vyplývajúci z maximálnej výšky stanovenej UŠ výškového zónovania\nvytvoriť priechodnú, efektívnu, priestorovo zrozumiteľnú a kompaktnú urbánnu štruktúru s ohľadom na polohu v rámci mesta\nvytvárať hierarchiu a kvalitu verejných a poloverejných priestorov\nvyužiť v území kompozičné akcenty\nvytvoriť aktívny parter pozdĺž uličnej čiary\nreagovať na deficit občianskej vybavenosti generovaný nárastom počtu obyvateľov zmenou ÚPN\nkoordinovať s úpravou technických chýb natočenia súradnícového systému rozvojových funkčných plôch v južnej časti Podunajských Biskupíc","d":"Navrhovaný počet parkovacích miest je 123 (DKP nie je potrebné). ","upnz":null}},{"type":"Feature","id":50,"geometry":{"type":"Polygon","coordinates":[[[17.216455,48.116101],[17.216991,48.115636],[17.220962,48.117236],[17.220973,48.117651],[17.217926,48.116382],[17.216915,48.116333],[17.216455,48.116101]]]},"properties":{"c":29,"mc":"Podunajské Biskupice","vym":15654,"fp":"502","fn":102,"kp":"D","kn":"F","vys":"Maximálna výška 11 metrov","bf":"nie","u":"vytvoriť priechodnú, efektívnu, priestorovo zrozumiteľnú a kompaktnú urbánnu štruktúru s ohľadom na polohu v rámci mesta\nvytvárať hierarchiu a kvalitu verejných a poloverejných priestorov\nvyužiť v území kompozičné akcenty\nreagovať na deficit občianskej vybavenosti generovaný nárastom počtu obyvateľov zmenou ÚPN\nupozorňujeme na Vyhlášku Ministerstva zdravotníctva Slovenskej republiky č. 549/2007 Z. z. v znení neskorších predpisov a Zákon č. 2/2005 Z. z. v znení neskorších predpisov.\ndodržiavať základné kritériá umiestňovania bývania (Kapitola 3.1.2. Záväznej časti ÚPN)\nv súlade so zmenou funkci","d":"V ďalšom stupni dokumentácie je potrebné vypracovať DKP.","upnz":null}},{"type":"Feature","id":51,"geometry":{"type":"Polygon","coordinates":[[[16.993175,48.209435],[16.992194,48.210778],[16.991783,48.210619],[16.991048,48.210426],[16.991041,48.210383],[16.991382,48.210082],[16.99144,48.209904],[16.991639,48.20977],[16.992016,48.209388],[16.993175,48.209435]]]},"properties":{"c":28,"mc":"Devínska Nová Ves","vym":12828,"fp":"202","fn":501,"kp":"E","kn":"G","vys":"Maximálna výška 21 metrov","bf":"nie","u":"naplno využiť potenciál územia vyplývajúci z maximálnej výšky stanovenej UŠ výškového zónovania\nvytvoriť priechodnú, efektívnu, priestorovo zrozumiteľnú a kompaktnú urbánnu štruktúru s ohľadom na polohu v rámci mesta\npreferovať formu blokovej zástavby / hmotovo-priestorové riešenie vymedziť takým spôsobom, aby bolo možné jednoznačne určiť plochu bloku a jeho hrany s verejným priestranstvom\nvytvárať hierarchiu a kvalitu verejných a poloverejných priestorov\njednoznačne definovať hranicu medzi zástavaným územím a voľnou krajinou\nvyužiť v území kompozičné akcenty\nvytvoriť aktívny parter pozdĺž uli","d":"V súčasnosti je riešené uzemie bez dorpavného napojenia. V ďalšom stupni dokumentácie je potrebné vypracovať DKP s napojením na navrhované, ako ja existujúce komunikácie v zmysle platného UPN BA","upnz":null}},{"type":"Feature","id":52,"geometry":{"type":"Polygon","coordinates":[[[16.993175,48.209435],[16.993546,48.209492],[16.992613,48.210867],[16.992541,48.210883],[16.992194,48.210778],[16.993175,48.209435]]]},"properties":{"c":27,"mc":"Devínska Nová Ves","vym":5146,"fp":"102","fn":501,"kp":"D","kn":"G","vys":"Maximálna výška 16 metrov","bf":"nie","u":"naplno využiť potenciál územia vyplývajúci z maximálnej výšky stanovenej UŠ výškového zónovania\nvytvoriť priechodnú, efektívnu, priestorovo zrozumiteľnú a kompaktnú urbánnu štruktúru s ohľadom na polohu v rámci mesta\npreferovať formu blokovej zástavby / hmotovo-priestorové riešenie vymedziť takým spôsobom, aby bolo možné jednoznačne určiť plochu bloku a jeho hrany s verejným priestranstvom\nvytvárať hierarchiu a kvalitu verejných a poloverejných priestorov\njednoznačne definovať hranicu medzi zástavaným územím a voľnou krajinou\nvyužiť v území kompozičné akcenty\nvytvoriť aktívny parter pozdĺž uli","d":"V súčasnosti je riešené uzemie bez dorpavného napojenia. V ďalšom stupni dokumentácie je potrebné vypracovať DKP s napojením na navrhované, ako ja existujúce komunikácie v zmysle platného UPN BA","upnz":null}},{"type":"Feature","id":53,"geometry":{"type":"Polygon","coordinates":[[[17.169802,48.204673],[17.169758,48.204637],[17.17004,48.204487],[17.170334,48.204427],[17.173536,48.20507],[17.17411,48.205198],[17.174143,48.20524],[17.173506,48.205424],[17.172466,48.205942],[17.169802,48.204673]]]},"properties":{"c":26,"mc":"Rača","vym":32605,"fp":"501","fn":101,"kp":"H","kn":"I","vys":"Maximálna výška 30 metrov","bf":"nie","u":"vytvoriť priechodnú, efektívnu, priestorovo zrozumiteľnú a kompaktnú urbánnu štruktúru s ohľadom na polohu v rámci mesta\npreferovať formu blokovej zástavby / hmotovo-priestorové riešenie vymedziť takým spôsobom, aby bolo možné jednoznačne určiť plochu bloku a jeho hrany s verejným priestranstvom\nvytvárať hierarchiu a kvalitu verejných a poloverejných priestorov\nrešpektovať priehľady v území\nvyužiť v území kompozičné akcenty\nvytvoriť pobytové verejné priestory\nreagovať na deficit občianskej vybavenosti generovaný nárastom počtu obyvateľov zmenou ÚPN\ndodržiavať základné kritériá umiestňovania bý","d":"Požadujeme doplniť navrhovaný počet parkovacích miest v zmysle STN 73 6110/Z2 a v ďalšom stupni dokumentácie vypracovať DKP pre celé riešené uzemie vrámci klastru.","upnz":null}},{"type":"Feature","id":54,"geometry":{"type":"Polygon","coordinates":[[[17.164724,48.208887],[17.165642,48.209566],[17.163971,48.21045],[17.16373,48.210225],[17.163671,48.210066],[17.164724,48.208887]]]},"properties":{"c":25,"mc":"Rača","vym":18172,"fp":"502, 201","fn":101,"kp":"G, H","kn":"I","vys":"Maximálna výška 30 metrov","bf":"nie","u":"vytvoriť priechodnú, efektívnu, priestorovo zrozumiteľnú a kompaktnú urbánnu štruktúru s ohľadom na polohu v rámci mesta\npreferovať formu blokovej zástavby / hmotovo-priestorové riešenie vymedziť takým spôsobom, aby bolo možné jednoznačne určiť plochu bloku a jeho hrany s verejným priestranstvom\nvytvárať hierarchiu a kvalitu verejných a poloverejných priestorov\nrešpektovať priehľady v území\nvyužiť v území kompozičné akcenty\nvytvoriť pobytové verejné priestory\nreagovať na deficit občianskej vybavenosti generovaný nárastom počtu obyvateľov zmenou ÚPN\nupozorňujeme na Vyhlášku Ministerstva zdravot","d":"Požadujeme doplniť navrhovaný počet parkovacích miest v zmysle STN 73 6110/Z2 a v ďalšom stupni dokumentácie vypracovať DKP pre celé riešené uzemie vrámci klastru. V rámci reišeného územia navrhnúť napojenie na plánovanú cyklistickú infraštruktúru na ul. ","upnz":null}},{"type":"Feature","id":55,"geometry":{"type":"MultiPolygon","coordinates":[[[[17.176761,48.199832],[17.175899,48.200665],[17.175852,48.200667],[17.17504,48.199983],[17.175669,48.199552],[17.1755,48.199409],[17.175886,48.199133],[17.176336,48.199664],[17.176913,48.199709],[17.176761,48.199832]]],[[[17.174951,48.200006],[17.175804,48.200758],[17.174559,48.201908],[17.173467,48.202499],[17.172624,48.20302],[17.172226,48.203152],[17.172392,48.203027],[17.172378,48.20298],[17.173332,48.202418],[17.173712,48.202347],[17.173898,48.202257],[17.173844,48.202113],[17.174512,48.201719],[17.173994,48.200322],[17.174652,48.199899],[17.174702,48.199942],[17.174798,48.199876],[17.174951,48.200006]]]]},"properties":{"c":24,"mc":"Rača","vym":18172,"fp":"201, 201","fn":501,"kp":"G, -","kn":"I","vys":"Maximálna výška 21 metrov","bf":"nie","u":"vytvoriť priechodnú, efektívnu, priestorovo zrozumiteľnú a kompaktnú urbánnu štruktúru s ohľadom na polohu v rámci mesta\npreferovať formu blokovej zástavby / hmotovo-priestorové riešenie vymedziť takým spôsobom, aby bolo možné jednoznačne určiť plochu bloku a jeho hrany s verejným priestranstvom\nvytvárať hierarchiu a kvalitu verejných a poloverejných priestorov\nrešpektovať priehľady v území\nvyužiť v území kompozičné akcenty\nvytvoriť pobytové verejné priestory\nvytvoriť polyfunkčné územie s pracovnými príležitosťami\nreagovať na deficit občianskej vybavenosti generovaný nárastom počtu obyvateľov ","d":"Požadujeme doplniť navrhovaný počet parkovacích miest v zmysle STN 73 6110/Z2 a v ďalšom stupni dokumentácie vypracovať DKP. V širších vzťahoch navhnúť dopravné napojenie samostnou príjazodovou cestou na komunikácie Východná a Sklabinská, vrátane  chodník","upnz":null}},{"type":"Feature","id":56,"geometry":{"type":"Polygon","coordinates":[[[17.161322,48.20672],[17.161374,48.206681],[17.162019,48.20702],[17.162471,48.207013],[17.165615,48.205296],[17.166917,48.206474],[17.164854,48.208513],[17.164938,48.208544],[17.164883,48.208601],[17.164935,48.208626],[17.163576,48.210188],[17.163057,48.209735],[17.161924,48.209049],[17.161418,48.208575],[17.161402,48.208403],[17.16112,48.20818],[17.160928,48.20823],[17.160233,48.207753],[17.16162,48.206896],[17.161322,48.20672]],[[17.165877,48.206038],[17.165885,48.206042],[17.165885,48.206042],[17.165877,48.206038]]]},"properties":{"c":23,"mc":"Rača","vym":119069,"fp":"502, 201, 301","fn":101,"kp":"G, H, E","kn":"I","vys":"Maximálna výška 30 metrov","bf":"nie","u":"vytvoriť priechodnú, efektívnu, priestorovo zrozumiteľnú a kompaktnú urbánnu štruktúru s ohľadom na polohu v rámci mesta\npreferovať formu blokovej zástavby / hmotovo-priestorové riešenie vymedziť takým spôsobom, aby bolo možné jednoznačne určiť plochu bloku a jeho hrany s verejným priestranstvom\nvytvárať hierarchiu a kvalitu verejných a poloverejných priestorov\nrešpektovať priehľady v území\nvyužiť v území kompozičné akcenty\nvytvoriť pobytové verejné priestory\nvytvoriť polyfunkčné územie s pracovnými príležitosťami\nreagovať na deficit občianskej vybavenosti generovaný nárastom počtu obyvateľov ","d":"Požadujeme doplniť navrhovaný počet parkovacích miest v zmysle STN 73 6110/Z2 a v ďalšom stupni dokumentácie vypracovať DKP pre celé riešené uzemie vrámci klastru. V rámci reišeného územia navrhnúť napojenie na plánovanú cyklistickú infraštruktúru na ul. ","upnz":null}},{"type":"Feature","id":57,"geometry":{"type":"Polygon","coordinates":[[[17.162177,48.213869],[17.161389,48.213448],[17.161345,48.21337],[17.161858,48.212965],[17.162384,48.212694],[17.162321,48.212638],[17.162395,48.212601],[17.162354,48.212564],[17.163534,48.211967],[17.164415,48.212731],[17.162177,48.213869]]]},"properties":{"c":21,"mc":"Rača","vym":22031,"fp":"502","fn":201,"kp":"E","kn":"E","vys":"Maximálna výška 16 metrov","bf":"nie","u":"vytvoriť priechodnú, efektívnu, priestorovo zrozumiteľnú a kompaktnú urbánnu štruktúru s ohľadom na polohu v rámci mesta\nvytvárať hierarchiu a kvalitu verejných a poloverejných priestorov\nvyužiť v území kompozičné akcenty\nvytvoriť pobytové verejné priestory\nvytvoriť polyfunkčné územie s pracovnými príležitosťami\nreagovať na deficit občianskej vybavenosti generovaný nárastom počtu obyvateľov zmenou ÚPN\nupozorňujeme na Vyhlášku Ministerstva zdravotníctva Slovenskej republiky č. 549/2007 Z. z. v znení neskorších predpisov a Zákon č. 2/2005 Z. z. v znení neskorších predpisov.\ndodržiavať základné k","d":"V ďalšom stupni dokumentácie požadujeme vypracovanie DKP.","upnz":null}},{"type":"Feature","id":58,"geometry":{"type":"Polygon","coordinates":[[[17.175203,48.166854],[17.174359,48.167937],[17.174263,48.167895],[17.17422,48.167948],[17.173706,48.167758],[17.174584,48.166684],[17.175203,48.166854]]]},"properties":{"c":20,"mc":"Ružinov","vym":7101,"fp":"201","fn":101,"kp":"Stabil","kn":"G","vys":"Maximálna výška 21 metrov","bf":"nie","u":"naplno využiť potenciál územia vyplývajúci z maximálnej výšky stanovenej UŠ výškového zónovania\nrešpektovať existujúcu uličnú čiaru okolitej zástavby\nreagovať na deficit občianskej vybavenosti generovaný nárastom počtu obyvateľov zmenou ÚPN\nvyriešiť prepojenie poloverejného priestoru bytového domu v kontakte s verejným priestorom ulice Ivanská cesta","d":"V ďalšom stupni dokumentácie požadujeme vypracovanie DKP v miestach napojenia na existujúcu cestnú infraštruktúru a zredukovať počet parkovacích miest na povrchu v prospech parkovania v PG.","upnz":null}},{"type":"Feature","id":59,"geometry":{"type":"Polygon","coordinates":[[[17.145804,48.060694],[17.145367,48.060675],[17.145348,48.060641],[17.145433,48.060066],[17.145523,48.059975],[17.145428,48.059974],[17.145454,48.059762],[17.146056,48.059737],[17.145875,48.060605],[17.145804,48.060694]]]},"properties":{"c":19,"mc":"Rusovce","vym":5540,"fp":"501","fn":102,"kp":"D","kn":"E","vys":"Maximálna výška 11 metrov","bf":"nie","u":"vytvoriť priechodnú, efektívnu, priestorovo zrozumiteľnú a kompaktnú urbánnu štruktúru s ohľadom na polohu v rámci mesta\npreferovať formu blokovej zástavby / hmotovo-priestorové riešenie vymedziť takým spôsobom, aby bolo možné jednoznačne určiť plochu bloku a jeho hrany s verejným priestranstvom\nvytvárať hierarchiu a kvalitu verejných a poloverejných priestorov\nrešpektovať priehľady v území\nvyužiť v území kompozičné akcenty\nvytvoriť pobytové verejné priestory\nreagovať na deficit občianskej vybavenosti generovaný nárastom počtu obyvateľov zmenou ÚPN\nv súlade so zmenou funkcie novú zástavbu prev","d":"V ďalšom stupni dokumentácie požadujeme vypracovať DKP pre celé riešené uzemie v rámci klastru. Zredukovať počet parkovacích miest na povrchu a umiestniť ich do PG. ","upnz":"Platný ÚPNZ Rusovce sever"}},{"type":"Feature","id":60,"geometry":{"type":"Polygon","coordinates":[[[17.038773,48.198993],[17.038654,48.198908],[17.036473,48.198534],[17.036959,48.198062],[17.037515,48.198304],[17.03756,48.198243],[17.037014,48.198008],[17.037439,48.197595],[17.038322,48.196993],[17.039755,48.197244],[17.039798,48.197315],[17.039649,48.197713],[17.039567,48.197751],[17.039531,48.197844],[17.039608,48.197906],[17.039483,48.197969],[17.039329,48.198367],[17.039404,48.198426],[17.03937,48.198505],[17.039305,48.198431],[17.039092,48.198983],[17.038827,48.198937],[17.0389,48.199015],[17.038773,48.198993]]]},"properties":{"c":18,"mc":"Dúbravka","vym":31900,"fp":"502","fn":101,"kp":"E","kn":"G","vys":"Maximálna výška 16 metrov","bf":"nie","u":"vytvoriť priechodnú, efektívnu, priestorovo zrozumiteľnú a kompaktnú urbánnu štruktúru s ohľadom na polohu v rámci mesta\npreferovať formu blokovej zástavby / hmotovo-priestorové riešenie vymedziť takým spôsobom, aby bolo možné jednoznačne určiť plochu bloku a jeho hrany s verejným priestranstvom\nvytvárať hierarchiu a kvalitu verejných a poloverejných priestorov\njednoznačne definovať hranicu medzi zástavaným územím a voľnou krajinou\nvyužiť v území kompozičné akcenty\nvytvoriť aktívny parter pozdĺž uličnej čiary\nvytvoriť pobytové verejné priestory\nreagovať na deficit občianskej vybavenosti genero","d":"V ďalšom stupni dokumentácie požadujeme vypracovať DKP, navrhnúť napojenie na cyklistikú infraštruktúru a priľahlé MHD podľa platného UPN.","upnz":null}},{"type":"Feature","id":61,"geometry":{"type":"Polygon","coordinates":[[[17.146311,48.059908],[17.146495,48.058386],[17.146426,48.058064],[17.146893,48.057991],[17.146572,48.060433],[17.146246,48.060411],[17.146311,48.059908]]]},"properties":{"c":17,"mc":"Rusovce","vym":6837,"fp":"501","fn":102,"kp":"D","kn":"E","vys":"Maximálna výška 11 metrov","bf":"nie","u":"vytvoriť priechodnú, efektívnu, priestorovo zrozumiteľnú a kompaktnú urbánnu štruktúru s ohľadom na polohu v rámci mesta\npreferovať formu blokovej zástavby / hmotovo-priestorové riešenie vymedziť takým spôsobom, aby bolo možné jednoznačne určiť plochu bloku a jeho hrany s verejným priestranstvom\nvytvárať hierarchiu a kvalitu verejných a poloverejných priestorov\nrešpektovať priehľady v území\nvyužiť v území kompozičné akcenty\nvytvoriť pobytové verejné priestory\nreagovať na deficit občianskej vybavenosti generovaný nárastom počtu obyvateľov zmenou ÚPN\nv súlade so zmenou funkcie novú zástavbu prev","d":"V ďalšom stupni dokumentácie požadujeme vypracovať DKP pre celé riešené uzemie v rámci klastru.","upnz":"Platný ÚPNZ Pamiatkové Rusovce Sever"}},{"type":"Feature","id":62,"geometry":{"type":"Polygon","coordinates":[[[16.988075,48.222379],[16.990025,48.223146],[16.989179,48.224243],[16.987193,48.223332],[16.988075,48.222379]]]},"properties":{"c":16,"mc":"Devínska Nová Ves","vym":20662,"fp":"501","fn":101,"kp":"G","kn":"G","vys":"Maximálna výška 21 metrov","bf":"nie","u":"naplno využiť potenciál územia vyplývajúci z maximálnej výšky stanovenej UŠ výškového zónovania\nvytvoriť priechodnú, efektívnu, priestorovo zrozumiteľnú a kompaktnú urbánnu štruktúru s ohľadom na polohu v rámci mesta\npreferovať formu blokovej zástavby / hmotovo-priestorové riešenie vymedziť takým spôsobom, aby bolo možné jednoznačne určiť plochu bloku a jeho hrany s verejným priestranstvom\nvytvárať hierarchiu a kvalitu verejných a poloverejných priestorov\nrešpektovať priehľady v území\nvyužiť v území kompozičné akcenty\nvytvoriť pobytové verejné priestory\nreagovať na deficit občianskej vybavenos","d":"Požadujeme doplniť navrhovaný počet parkovacích miest v zmysle STN 73 6110/Z2 a v ďalšom stupni dokumentácie vypracovať DKP. S tým súvisí aj navrhovaný kruhový objazd na  ul. Jána Jonáša, ktorý neodporúčame, pokiaľ jeho pripustnoť nebla preukázaná výpočto","upnz":null}},{"type":"Feature","id":63,"geometry":{"type":"Polygon","coordinates":[[[17.150766,48.14693],[17.151516,48.145059],[17.152558,48.145196],[17.152017,48.147023],[17.150766,48.14693]]]},"properties":{"c":14,"mc":"Ružinov","vym":18437,"fp":"502","fn":501,"kp":"Stabil","kn":"I","vys":"Maximálna výška 30 metrov","bf":"Registrovaný brownfield","u":"Lokalita je bude súčasťou Mestskej urbanistickej štúdie Mlynské Nivy","d":"Lokalita je bude súčasťou Mestskej urbanistickej štúdie Mlynské Nivy","upnz":null}},{"type":"Feature","id":64,"geometry":{"type":"Polygon","coordinates":[[[17.13696,48.19574],[17.135428,48.194461],[17.135434,48.194422],[17.137266,48.19343],[17.137438,48.193379],[17.138045,48.193776],[17.137136,48.194155],[17.138118,48.1952],[17.13696,48.19574]]]},"properties":{"c":109,"mc":"Rača","vym":26409,"fp":"102, 202, 502, 1130","fn":102,"kp":"E, C, G","kn":"E","vys":"Maximálna výška 16 metrov","bf":"nie","u":"vytvoriť priechodnú, efektívnu, priestorovo zrozumiteľnú a kompaktnú urbánnu štruktúru s ohľadom na polohu v rámci mesta\npreferovať formu blokovej zástavby / hmotovo-priestorové riešenie vymedziť takým spôsobom, aby bolo možné jednoznačne určiť plochu bloku a jeho hrany s verejným priestranstvom\nvytvárať hierarchiu a kvalitu verejných a poloverejných priestorov\njednoznačne definovať hranicu medzi zástavaným územím a voľnou krajinou\nvyužiť v území kompozičné akcenty\nvytvoriť pobytové verejné priestory\nreagovať na deficit občianskej vybavenosti generovaný nárastom počtu obyvateľov zmenou ÚPN\nupo","d":"Podľa platného UPN BA sa v týchto miestach výhľadovo uvažuje so zaustením tunela popod Karpaty (vonkajší dopravný polokruh).","upnz":null}},{"type":"Feature","id":65,"geometry":{"type":"Polygon","coordinates":[[[17.149971,48.142431],[17.14995,48.142845],[17.149816,48.142839],[17.149817,48.143533],[17.147726,48.143407],[17.147761,48.143019],[17.147671,48.14295],[17.147679,48.142418],[17.149971,48.142431]]]},"properties":{"c":110,"mc":"Ružinov","vym":18645,"fp":"201","fn":101,"kp":"Stabil","kn":"I","vys":"Maximálna výška 30 metrov","bf":"Registrovaný brownfield","u":"Lokalita je bude súčasťou Mestskej urbanistickej štúdie Mlynské Nivy","d":"Lokalita je bude súčasťou Mestskej urbanistickej štúdie Mlynské Nivy","upnz":null}},{"type":"Feature","id":66,"geometry":{"type":"Polygon","coordinates":[[[17.198518,48.172951],[17.198416,48.173128],[17.198541,48.173161],[17.197983,48.174138],[17.197673,48.17434],[17.197591,48.174321],[17.197537,48.174367],[17.196415,48.174005],[17.195303,48.173493],[17.195496,48.173554],[17.195572,48.173459],[17.196165,48.173725],[17.196968,48.172537],[17.198518,48.172951]]]},"properties":{"c":111,"mc":"Ružinov","vym":23922,"fp":"201","fn":501,"kp":"H","kn":"H","vys":"Maximálna výška 30 metrov","bf":"Registrovaný brownfield","u":"vytvoriť priechodnú, efektívnu, priestorovo zrozumiteľnú a kompaktnú urbánnu štruktúru s ohľadom na polohu v rámci mesta\nvytvárať hierarchiu a kvalitu verejných a poloverejných priestorov\nreagovať na deficit občianskej vybavenosti generovaný nárastom počtu obyvateľov zmenou ÚPN\nupozorňujeme na Vyhlášku Ministerstva zdravotníctva Slovenskej republiky č. 549/2007 Z. z. v znení neskorších predpisov a Zákon č. 2/2005 Z. z. v znení neskorších predpisov.\ndodržiavať základné kritériá umiestňovania bývania (Kapitola 3.1.2. Záväznej časti ÚPN)\nkoordinovať návrh s investičnými zámermi mesta v kontaktnom","d":"V ďalšom stupni dokumentácie požadujeme vypracovanie DKP.","upnz":null}},{"type":"Feature","id":67,"geometry":{"type":"MultiPolygon","coordinates":[[[[17.196379,48.173821],[17.196299,48.173939],[17.195303,48.173493],[17.195496,48.173554],[17.195572,48.173459],[17.196165,48.173725],[17.196968,48.172537],[17.197211,48.172602],[17.196379,48.173821]]],[[[17.197537,48.174367],[17.196518,48.174034],[17.197444,48.172663],[17.198518,48.172951],[17.198416,48.173128],[17.198541,48.173161],[17.197845,48.17438],[17.197591,48.174321],[17.197537,48.174367]]]]},"properties":{"c":112,"mc":"Ružinov","vym":16641,"fp":"201","fn":501,"kp":"H","kn":"H","vys":"Maximálna výška 30 metrov","bf":"Registrovaný brownfield","u":"vytvoriť priechodnú, efektívnu, priestorovo zrozumiteľnú a kompaktnú urbánnu štruktúru s ohľadom na polohu v rámci mesta\nvytvárať hierarchiu a kvalitu verejných a poloverejných priestorov\nreagovať na deficit občianskej vybavenosti generovaný nárastom počtu obyvateľov zmenou ÚPN\nupozorňujeme na Vyhlášku Ministerstva zdravotníctva Slovenskej republiky č. 549/2007 Z. z. v znení neskorších predpisov a Zákon č. 2/2005 Z. z. v znení neskorších predpisov.\ndodržiavať základné kritériá umiestňovania bývania (Kapitola 3.1.2. Záväznej časti ÚPN)\nkoordinovať návrh s investičnými zámermi mesta v kontaktnom","d":"V ďalšom stupni dokumentácie požadujeme vypracovanie DKP.","upnz":null}},{"type":"Feature","id":68,"geometry":{"type":"Polygon","coordinates":[[[17.185561,48.21789],[17.18409,48.218515],[17.184163,48.218561],[17.183658,48.218745],[17.182682,48.218132],[17.183765,48.217536],[17.185561,48.21789]]]},"properties":{"c":113,"mc":"Vajnory","vym":6534,"fp":"201","fn":501,"kp":"G","kn":"G","vys":"Maximálna výška 21 metrov","bf":"nie","u":"naplno využiť potenciál územia vyplývajúci z maximálnej výšky stanovenej UŠ výškového zónovania\nvytvoriť priechodnú, efektívnu, priestorovo zrozumiteľnú a kompaktnú urbánnu štruktúru s ohľadom na polohu v rámci mesta\npreferovať formu blokovej zástavby / hmotovo-priestorové riešenie vymedziť takým spôsobom, aby bolo možné jednoznačne určiť plochu bloku a jeho hrany s verejným priestranstvom\nvytvárať hierarchiu a kvalitu verejných a poloverejných priestorov\njednoznačne definovať hranicu medzi zástavaným územím a voľnou krajinou\nvyužiť v území kompozičné akcenty\nvytvoriť aktívny parter pozdĺž uli","d":"Požadujeme upresniť celkový počet navrhovaných parkovacích miest na povrchu a v PG (nesedí uvedená hodnota 160 p.m. s výkresovou časťou. Zároveň požadujeme znižiť celkový podiel p.m. na povrchu a v ďalšom stupni dokumentácie vypracovať DKP v miestach napo","upnz":null}},{"type":"Feature","id":69,"geometry":{"type":"Polygon","coordinates":[[[17.096897,48.119854],[17.096961,48.119912],[17.097361,48.119767],[17.098236,48.120805],[17.098204,48.120822],[17.098262,48.120895],[17.097876,48.121079],[17.096897,48.119854]]]},"properties":{"c":116,"mc":"Petržalka","vym":5256,"fp":"201","fn":501,"kp":"G","kn":"G","vys":"Maximálna výška 30 metrov","bf":"Registrovaný brownfield","u":"naplno využiť potenciál územia vyplývajúci z maximálnej výšky stanovenej UŠ výškového zónovania\nvytvoriť priechodnú, efektívnu, priestorovo zrozumiteľnú a kompaktnú urbánnu štruktúru s ohľadom na polohu v rámci mesta\npreferovať formu blokovej zástavby / hmotovo-priestorové riešenie vymedziť takým spôsobom, aby bolo možné jednoznačne určiť plochu bloku a jeho hrany s verejným priestranstvom\nvytvárať hierarchiu a kvalitu verejných a poloverejných priestorov\nvyužiť v území kompozičné akcenty\nvytvoriť aktívny parter pozdĺž uličnej čiary\nvytvoriť pobytové verejné priestory\nvytvoriť polyfunkčné územ","d":"V ďalšom stupni dokumentácie požadujeme vypracovanie DKP","upnz":"Rozpracovaný ÚPNZ Matador"}},{"type":"Feature","id":70,"geometry":{"type":"Polygon","coordinates":[[[17.093384,48.12042],[17.093721,48.120314],[17.093896,48.120534],[17.09415,48.120441],[17.094888,48.121335],[17.094379,48.121521],[17.094079,48.121417],[17.093384,48.12042]]]},"properties":{"c":117,"mc":"Petržalka","vym":6498,"fp":"502","fn":501,"kp":"F","kn":"F","vys":"Maximálna výška 21 metrov","bf":"Registrovaný brownfield, registrovaná envirozáťaž","u":"naplno využiť potenciál územia vyplývajúci z maximálnej výšky stanovenej UŠ výškového zónovania\nvytvoriť priechodnú, efektívnu, priestorovo zrozumiteľnú a kompaktnú urbánnu štruktúru s ohľadom na polohu v rámci mesta\npreferovať formu blokovej zástavby / hmotovo-priestorové riešenie vymedziť takým spôsobom, aby bolo možné jednoznačne určiť plochu bloku a jeho hrany s verejným priestranstvom\nvytvárať hierarchiu a kvalitu verejných a poloverejných priestorov\nvyužiť v území kompozičné akcenty\nvytvoriť aktívny parter pozdĺž uličnej čiary\nvytvoriť pobytové verejné priestory\nvytvoriť polyfunkčné územ","d":"V ďalšom stupni dokumentácie požadujeme vypracovanie DKP","upnz":"Spracovanie ÚPNZ Matador zrušené"}},{"type":"Feature","id":71,"geometry":{"type":"Polygon","coordinates":[[[17.090142,48.123512],[17.090825,48.124487],[17.089608,48.124903],[17.089307,48.124504],[17.08997,48.124318],[17.089835,48.124121],[17.09006,48.124016],[17.08984,48.123706],[17.089768,48.123729],[17.089695,48.123614],[17.090142,48.123512]]]},"properties":{"c":108,"mc":"Petržalka","vym":7774,"fp":"201","fn":101,"kp":"Stabil","kn":"F","vys":"Maximálna výška 21 metrov","bf":"nie","u":"vytvoriť priechodnú, efektívnu, priestorovo zrozumiteľnú a kompaktnú urbánnu štruktúru s ohľadom na polohu v rámci mesta\npreferovať formu blokovej zástavby / hmotovo-priestorové riešenie vymedziť takým spôsobom, aby bolo možné jednoznačne určiť plochu bloku a jeho hrany s verejným priestranstvom\nvytvárať hierarchiu a kvalitu verejných a poloverejných priestorov\nrešpektovať priehľady v území\nvyužiť v území kompozičné akcenty\nvytvoriť aktívny parter pozdĺž uličnej čiary\nvytvoriť pobytové verejné priestory\nkoordinovať návrh s nový štvrtý Kapitulský dvor","d":" Potreba dobudovania priľahlých komunukácii podľa platného UPN BA, v súčasnosti ide o územie s omedzenou dostupnosťou. V ďalšom stupni dokumentácie požadujeme vypracovanie DKP.","upnz":null}},{"type":"Feature","id":72,"geometry":{"type":"Polygon","coordinates":[[[17.160491,48.142599],[17.160913,48.142698],[17.160808,48.144369],[17.160728,48.144701],[17.16064,48.14482],[17.15656,48.144478],[17.156477,48.142667],[17.160491,48.142599]]]},"properties":{"c":107,"mc":"Ružinov","vym":66337,"fp":"501","fn":101,"kp":"H","kn":"Stabil","vys":"Maximálna výška 30 metrov","bf":"nie","u":"Lokalita je bude súčasťou Mestskej urbanistickej štúdie Mlynské Nivy","d":"Lokalita je bude súčasťou Mestskej urbanistickej štúdie Mlynské Nivy","upnz":null}},{"type":"Feature","id":73,"geometry":{"type":"Polygon","coordinates":[[[16.991562,48.204756],[16.990833,48.204091],[16.990562,48.204072],[16.990961,48.203968],[16.991305,48.204083],[16.995304,48.203988],[16.996337,48.203767],[16.996452,48.203861],[16.996386,48.204126],[16.99445,48.204239],[16.991562,48.204756]]]},"properties":{"c":106,"mc":"Devínska Nová Ves","vym":17228,"fp":"201","fn":501,"kp":"D","kn":"E","vys":"Maximálna výška 21 metrov","bf":"nie","u":"vytvoriť priechodnú, efektívnu, priestorovo zrozumiteľnú a kompaktnú urbánnu štruktúru s ohľadom na polohu v rámci mesta\nrešpektovať existujúcu uličnú čiaru okolitej zástavby\npreferovať formu blokovej zástavby / hmotovo-priestorové riešenie vymedziť takým spôsobom, aby bolo možné jednoznačne určiť plochu bloku a jeho hrany s verejným priestranstvom\nvytvárať hierarchiu a kvalitu verejných a poloverejných priestorov\njednoznačne definovať hranicu medzi zástavaným územím a voľnou krajinou\nvyužiť v území kompozičné akcenty\nvytvoriť pobytové verejné priestory\nreagovať na deficit občianskej vybavenos","d":"V ďalšom stupni dokumentácie požadujeme vypracovanie DKP.","upnz":null}},{"type":"Feature","id":74,"geometry":{"type":"Polygon","coordinates":[[[17.047468,48.17305],[17.04744,48.173265],[17.047353,48.173252],[17.047049,48.173955],[17.044688,48.17359],[17.044972,48.173168],[17.045113,48.172797],[17.047468,48.17305]]]},"properties":{"c":103,"mc":"Dúbravka","vym":17277,"fp":"102","fn":102,"kp":"B","kn":"D","vys":"Maximálna výška 11 metrov","bf":"nie","u":"vytvoriť priechodnú, efektívnu, priestorovo zrozumiteľnú a kompaktnú urbánnu štruktúru s ohľadom na polohu v rámci mesta\npreferovať formu blokovej zástavby / hmotovo-priestorové riešenie vymedziť takým spôsobom, aby bolo možné jednoznačne určiť plochu bloku a jeho hrany s verejným priestranstvom\nvytvárať hierarchiu a kvalitu verejných a poloverejných priestorov\njednoznačne definovať hranicu medzi zástavaným územím a voľnou krajinou\nrešpektovať priehľady v území\nvyužiť potenciál vyhliadkových bodov v území\nvyužiť v území kompozičné akcenty\nvytvoriť pobytové verejné priestory\nreagovať na deficit","d":"V ďalšom stupni dokumentácie požadujeme vypracovanie DKP.","upnz":null}},{"type":"Feature","id":75,"geometry":{"type":"Polygon","coordinates":[[[17.047468,48.17305],[17.048656,48.173249],[17.048567,48.173576],[17.048653,48.173595],[17.048667,48.173851],[17.048482,48.174248],[17.047049,48.173955],[17.047353,48.173252],[17.04744,48.173265],[17.047468,48.17305]]]},"properties":{"c":104,"mc":"Dúbravka","vym":11299,"fp":"501","fn":101,"kp":"H","kn":"H","vys":"Maximálna výška 21 metrov","bf":"nie","u":"naplno využiť potenciál územia vyplývajúci z maximálnej výšky stanovenej UŠ výškového zónovania\nvytvoriť priechodnú, efektívnu, priestorovo zrozumiteľnú a kompaktnú urbánnu štruktúru s ohľadom na polohu v rámci mesta\npreferovať formu blokovej zástavby / hmotovo-priestorové riešenie vymedziť takým spôsobom, aby bolo možné jednoznačne určiť plochu bloku a jeho hrany s verejným priestranstvom\nvytvárať hierarchiu a kvalitu verejných a poloverejných priestorov\njednoznačne definovať hranicu medzi zástavaným územím a voľnou krajinou\nrešpektovať priehľady v území\nvyužiť potenciál vyhliadkových bodov v","d":"V ďalšom stupni dokumentácie požadujeme vypracovanie DKP.","upnz":null}},{"type":"Feature","id":76,"geometry":{"type":"Polygon","coordinates":[[[17.159415,48.14606],[17.158813,48.146548],[17.15873,48.146541],[17.158693,48.146698],[17.158099,48.146653],[17.158017,48.147019],[17.155499,48.14677],[17.155605,48.146787],[17.155249,48.1469],[17.15526,48.146791],[17.154726,48.146795],[17.154693,48.145635],[17.159415,48.14606]]]},"properties":{"c":101,"mc":"Ružinov","vym":10200,"fp":"201","fn":101,"kp":"Stabil","kn":"H","vys":"Maximálna výška 30 metrov","bf":"nie","u":"Lokalita je bude súčasťou Mestskej urbanistickej štúdie Mlynské Nivy","d":"Lokalita je bude súčasťou Mestskej urbanistickej štúdie Mlynské Nivy","upnz":null}},{"type":"Feature","id":77,"geometry":{"type":"Polygon","coordinates":[[[17.133284,48.189877],[17.134187,48.190703],[17.134349,48.190657],[17.134992,48.191207],[17.133901,48.191918],[17.133783,48.19193],[17.133838,48.191963],[17.133634,48.192078],[17.132985,48.191941],[17.132634,48.191784],[17.132363,48.19151],[17.131867,48.190706],[17.131777,48.19064],[17.133284,48.189877]]]},"properties":{"c":96,"mc":"Rača","vym":25121,"fp":"102, 303","fn":102,"kp":"F, G","kn":"E","vys":"Maximálna výška 11 metrov","bf":"nie","u":"vytvoriť priechodnú, efektívnu, priestorovo zrozumiteľnú a kompaktnú urbánnu štruktúru s ohľadom na polohu v rámci mesta\npreferovať formu blokovej zástavby / hmotovo-priestorové riešenie vymedziť takým spôsobom, aby bolo možné jednoznačne určiť plochu bloku a jeho hrany s verejným priestranstvom\nvytvárať hierarchiu a kvalitu verejných a poloverejných priestorov\njednoznačne definovať hranicu medzi zástavaným územím a voľnou krajinou\nvyužiť v území kompozičné akcenty\nvytvoriť pobytové verejné priestory\nreagovať na deficit občianskej vybavenosti generovaný nárastom počtu obyvateľov zmenou ÚPN\nv s","d":"Požadujeme vypracovania DKP.","upnz":null}},{"type":"Feature","id":78,"geometry":{"type":"Polygon","coordinates":[[[17.193073,48.171763],[17.193963,48.171891],[17.194012,48.171964],[17.194016,48.172061],[17.193508,48.172981],[17.19256,48.172632],[17.193073,48.171763]]]},"properties":{"c":115,"mc":"Ružinov","vym":9133,"fp":"201","fn":101,"kp":"H","kn":"H","vys":"Maximálna výška 30 metrov","bf":"Registrovaný brownfield","u":"vytvoriť priechodnú, efektívnu, priestorovo zrozumiteľnú a kompaktnú urbánnu štruktúru s ohľadom na polohu v rámci mesta\nvytvárať hierarchiu a kvalitu verejných a poloverejných priestorov\nreagovať na deficit občianskej vybavenosti generovaný nárastom počtu obyvateľov zmenou ÚPN\nupozorňujeme na Vyhlášku Ministerstva zdravotníctva Slovenskej republiky č. 549/2007 Z. z. v znení neskorších predpisov a Zákon č. 2/2005 Z. z. v znení neskorších predpisov.\ndodržiavať základné kritériá umiestňovania bývania (Kapitola 3.1.2. Záväznej časti ÚPN)\nkoordinovať návrh s investičnými zámermi mesta v kontaktnom","d":"V ďalšom stupni dokumentácie požadujeme vypracovanie DKP.","upnz":null}},{"type":"Feature","id":79,"geometry":{"type":"Polygon","coordinates":[[[17.118487,48.071898],[17.119446,48.071599],[17.120212,48.072722],[17.119204,48.072934],[17.118487,48.071898]]]},"properties":{"c":55,"mc":"Jarovce","vym":10341,"fp":"201","fn":101,"kp":"B","kn":"F","vys":"Maximálna výška 11 metrov","bf":"nie","u":"dotvoriť urbánnu štruktúru s formou a intenzitou jestvujúcej zástavby v okolitom území\nrešpektovať existujúcu uličnú čiaru okolitej zástavby\npreferovať formu blokovej zástavby / hmotovo-priestorové riešenie vymedziť takým spôsobom, aby bolo možné jednoznačne určiť plochu bloku a jeho hrany s verejným priestranstvom\nvytvárať hierarchiu a kvalitu verejných a poloverejných priestorov\nvyužiť v území kompozičné akcenty\nvytvoriť pobytové verejné priestory\nreagovať na deficit občianskej vybavenosti generovaný nárastom počtu obyvateľov zmenou ÚPN\nv súlade so zmenou funkcie novú zástavbu preveriť vo vý","d":"V ďalšom stupni dokumentácie požadujeme vypracovanie DKP.","upnz":null}},{"type":"Feature","id":80,"geometry":{"type":"Polygon","coordinates":[[[17.1542,48.179017],[17.154335,48.178916],[17.155177,48.179227],[17.155279,48.179162],[17.155293,48.179245],[17.155205,48.179346],[17.156156,48.179728],[17.155837,48.180181],[17.153748,48.179476],[17.1542,48.179017]]]},"properties":{"c":54,"mc":"Nové Mesto","vym":11280,"fp":"201","fn":101,"kp":"Stabil","kn":"","vys":"Maximálna výška 16 metrov","bf":"Registrovaný brownfield","u":"vytvoriť priechodnú, efektívnu, priestorovo zrozumiteľnú a kompaktnú urbánnu štruktúru s ohľadom na polohu v rámci mesta\nrešpektovať existujúcu uličnú čiaru okolitej zástavby\npreferovať formu blokovej zástavby / hmotovo-priestorové riešenie vymedziť takým spôsobom, aby bolo možné jednoznačne určiť plochu bloku a jeho hrany s verejným priestranstvom\nvytvárať hierarchiu a kvalitu verejných a poloverejných priestorov\nvyužiť v území kompozičné akcenty\nvytvoriť aktívny parter pozdĺž uličnej čiary\nvytvoriť pobytové verejné priestory\nvytvoriť polyfunkčné územie s pracovnými príležitosťami\nreagovať na","d":"V ďalšom stupni dokumentácie požadujeme vypracovanie DKP.","upnz":null}},{"type":"Feature","id":81,"geometry":{"type":"Polygon","coordinates":[[[17.177653,48.1565],[17.178757,48.15639],[17.178798,48.156464],[17.179393,48.156291],[17.179843,48.157582],[17.179803,48.158083],[17.178292,48.157993],[17.178054,48.158122],[17.177811,48.157959],[17.177993,48.157816],[17.178043,48.157576],[17.17768,48.157549],[17.177725,48.157268],[17.177653,48.1565]]]},"properties":{"c":51,"mc":"Ružinov","vym":13504,"fp":"<Null>","fn":null,"kp":"<Null>","kn":"","vys":"Maximálna výška 21 metrov","bf":"nie","u":"vytvoriť priechodnú, efektívnu, priestorovo zrozumiteľnú a kompaktnú urbánnu štruktúru s ohľadom na polohu v rámci mesta\npreferovať formu blokovej zástavby / hmotovo-priestorové riešenie vymedziť takým spôsobom, aby bolo možné jednoznačne určiť plochu bloku a jeho hrany s verejným priestranstvom\nvytvárať hierarchiu a kvalitu verejných a poloverejných priestorov\nvytvoriť pobytové verejné priestory","d":"V ďalšom stupni dokumentácie požadujeme vypracovanie DKP v miestach napojenia na existujúcu cestnú infraštruktúru a zredukovať počet parkovacích miest na povrchu v prospech parkovania v PG.","upnz":"Rozpracovaný ÚPNZ Pošeň - sever"}},{"type":"Feature","id":82,"geometry":{"type":"Polygon","coordinates":[[[17.138854,48.191343],[17.138961,48.191291],[17.140131,48.192335],[17.139546,48.19264],[17.138418,48.191657],[17.138442,48.191583],[17.138854,48.191343]]]},"properties":{"c":50,"mc":"Rača","vym":8068,"fp":"301","fn":501,"kp":"Stabil","kn":"G","vys":"Maximálna výška 30 metrov","bf":"nie","u":"naplno využiť potenciál územia vyplývajúci z maximálnej výšky stanovenej UŠ výškového zónovania\ndotvoriť urbánnu štruktúru s formou a intenzitou jestvujúcej zástavby v okolitom území\nrešpektovať existujúcu uličnú čiaru okolitej zástavby\npreferovať formu blokovej zástavby / hmotovo-priestorové riešenie vymedziť takým spôsobom, aby bolo možné jednoznačne určiť plochu bloku a jeho hrany s verejným priestranstvom\nvytvárať hierarchiu a kvalitu verejných a poloverejných priestorov\nvyužiť v území kompozičné akcenty\nvytvoriť aktívny parter pozdĺž uličnej čiary\nvytvoriť pobytové verejné priestory\nvytvo","d":"Navrhovaný počet parkovacích miest je 135 (DKP nie je potrebné). ","upnz":null}},{"type":"Feature","id":83,"geometry":{"type":"Polygon","coordinates":[[[17.147566,48.153361],[17.148198,48.152315],[17.148599,48.152452],[17.14858,48.152487],[17.148502,48.152465],[17.148165,48.153027],[17.14823,48.153114],[17.148417,48.153072],[17.14872,48.153155],[17.148462,48.153589],[17.147566,48.153361]]]},"properties":{"c":48,"mc":"Ružinov","vym":8362,"fp":"201","fn":101,"kp":"Stabil","kn":"","vys":"Maximálna výška 30 metrov","bf":"nie","u":"dotvoriť urbánnu štruktúru s formou a intenzitou jestvujúcej zástavby v okolitom území\npreferovať formu blokovej zástavby / hmotovo-priestorové riešenie vymedziť takým spôsobom, aby bolo možné jednoznačne určiť plochu bloku a jeho hrany s verejným priestranstvom\nvytvárať hierarchiu a kvalitu verejných a poloverejných priestorov\nvytvoriť aktívny parter pozdĺž uličnej čiary\nvytvoriť pobytové verejné priestory\nreagovať na deficit občianskej vybavenosti generovaný nárastom počtu obyvateľov zmenou ÚPN\nupozorňujeme na Vyhlášku Ministerstva zdravotníctva Slovenskej republiky č. 549/2007 Z. z. v znení","d":"V ďalšom stupni dokumentácie požadujeme vypracovanie DKP.","upnz":null}},{"type":"Feature","id":84,"geometry":{"type":"Polygon","coordinates":[[[17.165445,48.153345],[17.167229,48.153506],[17.16726,48.153584],[17.167055,48.154824],[17.165697,48.15474],[17.165834,48.153915],[17.165475,48.153887],[17.165414,48.153742],[17.165474,48.15338],[17.165445,48.153345]]]},"properties":{"c":47,"mc":"Ružinov","vym":17374,"fp":"201","fn":101,"kp":"Stabil","kn":"","vys":"Maximálna výška 46 metrov","bf":"nie","u":"dotvoriť urbánnu štruktúru s formou a intenzitou jestvujúcej zástavby v okolitom území\nrešpektovať existujúcu uličnú čiaru okolitej zástavby\npreferovať formu blokovej zástavby / hmotovo-priestorové riešenie vymedziť takým spôsobom, aby bolo možné jednoznačne určiť plochu bloku a jeho hrany s verejným priestranstvom\nvytvárať hierarchiu a kvalitu verejných a poloverejných priestorov\nvyužiť v území kompozičné akcenty\nvytvoriť aktívny parter pozdĺž uličnej čiary\nvytvoriť pobytové verejné priestory\nreagovať na deficit občianskej vybavenosti generovaný nárastom počtu obyvateľov zmenou ÚPN","d":"V ďalšom stupni dokumentácie požadujeme vypracovanie DKP.","upnz":"Rozpracovaný ÚPNZ Pošeň - sever"}},{"type":"Feature","id":85,"geometry":{"type":"Polygon","coordinates":[[[17.148277,48.153118],[17.148174,48.153073],[17.148185,48.152985],[17.148502,48.152465],[17.148604,48.152462],[17.148405,48.152371],[17.148985,48.152528],[17.148946,48.15259],[17.149147,48.152647],[17.149186,48.152581],[17.149399,48.152641],[17.149424,48.152596],[17.149518,48.152589],[17.150229,48.152809],[17.150028,48.153371],[17.149577,48.153253],[17.149523,48.15335],[17.148826,48.153181],[17.148784,48.15325],[17.148681,48.15322],[17.14872,48.153155],[17.148417,48.153072],[17.148277,48.153118]]]},"properties":{"c":49,"mc":"Ružinov","vym":9995,"fp":"201","fn":101,"kp":"Stabil","kn":"","vys":"Maximálna výška 30 metrov","bf":"nie","u":"dotvoriť urbánnu štruktúru s formou a intenzitou jestvujúcej zástavby v okolitom území\npreferovať formu blokovej zástavby / hmotovo-priestorové riešenie vymedziť takým spôsobom, aby bolo možné jednoznačne určiť plochu bloku a jeho hrany s verejným priestranstvom\nvytvárať hierarchiu a kvalitu verejných a poloverejných priestorov\nvytvoriť pobytové verejné priestory\nreagovať na deficit občianskej vybavenosti generovaný nárastom počtu obyvateľov zmenou ÚPN","d":"V ďalšom stupni dokumentácie požadujeme vypracovanie DKP.","upnz":null}},{"type":"Feature","id":86,"geometry":{"type":"Polygon","coordinates":[[[17.080335,48.107405],[17.080781,48.10797],[17.081524,48.108316],[17.081198,48.108714],[17.082646,48.109234],[17.081696,48.1103],[17.078823,48.109274],[17.079677,48.108168],[17.080335,48.107405]]]},"properties":{"c":45,"mc":"Petržalka","vym":41825,"fp":"202","fn":501,"kp":"E","kn":"G","vys":"Maximálna výška 16 metrov","bf":"nie","u":"vytvoriť priechodnú, efektívnu, priestorovo zrozumiteľnú a kompaktnú urbánnu štruktúru s ohľadom na polohu v rámci mesta\npreferovať formu blokovej zástavby / hmotovo-priestorové riešenie vymedziť takým spôsobom, aby bolo možné jednoznačne určiť plochu bloku a jeho hrany s verejným priestranstvom\nvytvárať hierarchiu a kvalitu verejných a poloverejných priestorov\njednoznačne definovať hranicu medzi zástavaným územím a voľnou krajinou\nvytvoriť aktívny parter pozdĺž uličnej čiary\nvytvoriť pobytové verejné priestory\nvytvoriť polyfunkčné územie s pracovnými príležitosťami\nreagovať na deficit občians","d":"V ďalšom stupni dokumentácie požadujeme vpracovanie DKP. Vzhľadom na rozvojové územie potrebné riešiť napojenie na MHD a navrhovanú cylistický infraštrúktúru podľa platného UPN.","upnz":null}},{"type":"Feature","id":87,"geometry":{"type":"Polygon","coordinates":[[[17.081141,48.110883],[17.082512,48.109387],[17.082675,48.109569],[17.081269,48.111049],[17.078818,48.113839],[17.079023,48.113963],[17.080719,48.114508],[17.080592,48.114685],[17.078315,48.113928],[17.081141,48.110883]]]},"properties":{"c":46,"mc":"Petržalka","vym":15900,"fp":"302","fn":null,"kp":"E, F","kn":"G, H","vys":"Maximálna výška 30 metrov","bf":"nie","u":"vytvoriť priechodnú, efektívnu, priestorovo zrozumiteľnú a kompaktnú urbánnu štruktúru s ohľadom na polohu v rámci mesta\npreferovať formu blokovej zástavby / hmotovo-priestorové riešenie vymedziť takým spôsobom, aby bolo možné jednoznačne určiť plochu bloku a jeho hrany s verejným priestranstvom\nvytvárať hierarchiu a kvalitu verejných a poloverejných priestorov\njednoznačne definovať hranicu medzi zástavaným územím a voľnou krajinou\nvytvoriť aktívny parter pozdĺž uličnej čiary\nvytvoriť pobytové verejné priestory\nvytvoriť polyfunkčné územie s pracovnými príležitosťami\nreagovať na deficit občians","d":"V ďalšom stupni dokumentácie požadujeme vpracovanie DKP. Vzhľadom na rozvojové územie potrebné riešiť napojenie na MHD a navrhovanú cylistický infraštrúktúru podľa platného UPN.","upnz":null}},{"type":"Feature","id":88,"geometry":{"type":"Polygon","coordinates":[[[17.146085,48.062215],[17.146653,48.063352],[17.14662,48.063359],[17.146743,48.063695],[17.145645,48.063663],[17.145017,48.063472],[17.145184,48.062366],[17.146085,48.062215]]]},"properties":{"c":35,"mc":"Rusovce","vym":29349,"fp":"202","fn":202,"kp":"C","kn":"E","vys":"Maximálna výška 11 metrov","bf":"nie","u":"vytvoriť priechodnú, efektívnu, priestorovo zrozumiteľnú a kompaktnú urbánnu štruktúru s ohľadom na polohu v rámci mesta\npreferovať formu blokovej zástavby / hmotovo-priestorové riešenie vymedziť takým spôsobom, aby bolo možné jednoznačne určiť plochu bloku a jeho hrany s verejným priestranstvom\nvytvárať hierarchiu a kvalitu verejných a poloverejných priestorov\nrešpektovať priehľady v území\nvyužiť v území kompozičné akcenty\nvytvoriť pobytové verejné priestory\nvytvoriť polyfunkčné územie s pracovnými príležitosťami\nreagovať na deficit občianskej vybavenosti generovaný nárastom počtu obyvateľov ","d":"Požadujeme vypracovať DKP pre celé riešené uzemie v rámci klastru.","upnz":"Platný ÚPNZ Pamiatkové Rusovce Sever"}},{"type":"Feature","id":89,"geometry":{"type":"Polygon","coordinates":[[[17.104556,48.135306],[17.104497,48.136428],[17.102631,48.136273],[17.102236,48.136157],[17.102071,48.136014],[17.101918,48.13601],[17.100921,48.135247],[17.104556,48.135306]]]},"properties":{"c":57,"mc":"Petržalka","vym":21686,"fp":"201","fn":101,"kp":"F","kn":"F","vys":"Maximálna výška 21 metrov","bf":"nie","u":"dotvoriť urbánnu štruktúru s formou a intenzitou jestvujúcej zástavby v okolitom území\npreferovať formu blokovej zástavby / hmotovo-priestorové riešenie vymedziť takým spôsobom, aby bolo možné jednoznačne určiť plochu bloku a jeho hrany s verejným priestranstvom\nvytvárať hierarchiu a kvalitu verejných a poloverejných priestorov\njednoznačne definovať hranicu medzi zástavaným územím a voľnou krajinou\nrešpektovať priehľady v území\nvyužiť potenciál vyhliadkových bodov v území\nvyužiť v území kompozičné akcenty\nvytvoriť pobytové verejné priestory\nvytvoriť polyfunkčné územie s pracovnými príležitosťa","d":"V ďalšom stupni dokumentácie požadujeme vypracovanie DKP, návrh riešenia dopravného napojenia na Einsteinovu a Viedenskú cestu a pešiu dostupnosť na zastávky MHD.","upnz":null}}]}